{
  "type": "FeatureCollection",
  "name": "Kincardine Technical Query Envelope",
  "features": [
    {
      "type": "Feature",
      "id": "kincardine-query-envelope",
      "geometry": {
        "type": "Polygon",
        "coordinates": [
          [
            [
              -3.75,
              56.052
            ],
            [
              -3.68,
              56.052
            ],
            [
              -3.68,
              56.095
            ],
            [
              -3.75,
              56.095
            ],
            [
              -3.75,
              56.052
            ]
          ]
        ]
      },
      "properties": {
        "purpose": "technical_retrieval_envelope",
        "warning": "Not a conservation-area, parish or historic-settlement boundary."
      }
    }
  ]
}