{
  "type": "FeatureCollection",
  "name": "Culross Technical Query Envelope",
  "features": [
    {
      "type": "Feature",
      "id": "culross-query-envelope",
      "geometry": {
        "type": "Polygon",
        "coordinates": [
          [
            [
              -3.69,
              56.048
            ],
            [
              -3.595,
              56.048
            ],
            [
              -3.595,
              56.105
            ],
            [
              -3.69,
              56.105
            ],
            [
              -3.69,
              56.048
            ]
          ]
        ]
      },
      "properties": {
        "purpose": "technical_retrieval_envelope",
        "warning": "Not a conservation-area, parish or historic-settlement boundary."
      }
    }
  ]
}