{
  "type": "FeatureCollection",
  "name": "Tillicoultry Heritage Points",
  "metadata": {
    "featureCount": 22,
    "createdAt": "2026-07-29",
    "attribution": "Contains Historic Environment Scotland and OS data © Historic Environment Scotland and Crown Copyright and database right 2026, licensed under the Open Government Licence v3.0."
  },
  "features": [
    {
      "type": "Feature",
      "id": "hes-lb42051",
      "geometry": {
        "type": "Point",
        "coordinates": [
          -3.743791,
          56.153253
        ]
      },
      "properties": {
        "id": "hes-lb42051",
        "projectId": "tillicoultry-scotland",
        "name": "99 High Street, Former Municipal Buildings and Library",
        "featureType": "listed_building",
        "documentedDateText": "Circa 1830 in its present form",
        "earliestPossibleYear": 1825,
        "latestPossibleYear": 1835,
        "dateBasis": "estimated_from_authoritative_source",
        "dateConfidence": "high",
        "shortDescription": "Classical early-19th-century civic building later used as municipal offices and library.",
        "sourceRecords": [
          {
            "sourceName": "HES designation LB42051",
            "sourceOrganisation": "Historic Environment Scotland",
            "sourceRecordId": "LB42051",
            "sourceUrl": "https://portal.historicenvironment.scot/designation/LB42051",
            "accessedAt": "2026-07-29",
            "reliability": "official_statutory"
          },
          {
            "sourceName": "Tillicoultry Conservation Area Character Appraisal, February 2018",
            "sourceOrganisation": "Clackmannanshire Council",
            "sourceRecordId": null,
            "sourceUrl": "https://www.clacks.gov.uk/document/6454.pdf",
            "accessedAt": "2026-07-29",
            "reliability": "local_authority"
          }
        ],
        "extantStatus": "extant",
        "createdAt": "2026-07-29",
        "updatedAt": "2026-07-29",
        "designationType": "Listed Building",
        "designationCategory": "C",
        "designationReference": "LB42051",
        "architectOrDesigner": null,
        "officialRecordUrl": "https://portal.historicenvironment.scot/designation/LB42051",
        "locationType": "designation_point",
        "locationConfidence": "high",
        "coverageLevel": "detailed",
        "liveRefreshRecommended": true
      }
    },
    {
      "type": "Feature",
      "id": "hes-lb42053",
      "geometry": {
        "type": "Point",
        "coordinates": [
          -3.733783,
          56.158399
        ]
      },
      "properties": {
        "id": "hes-lb42053",
        "projectId": "tillicoultry-scotland",
        "name": "Tillicoultry House Stable Block",
        "featureType": "listed_building",
        "documentedDateText": "Early 19th century",
        "earliestPossibleYear": 1800,
        "latestPossibleYear": 1829,
        "dateBasis": "documented_date_range",
        "dateConfidence": "high",
        "shortDescription": "Principal surviving service building of the former Tillicoultry House estate.",
        "sourceRecords": [
          {
            "sourceName": "HES designation LB42053",
            "sourceOrganisation": "Historic Environment Scotland",
            "sourceRecordId": "LB42053",
            "sourceUrl": "https://portal.historicenvironment.scot/designation/LB42053",
            "accessedAt": "2026-07-29",
            "reliability": "official_statutory"
          },
          {
            "sourceName": "Tillicoultry Conservation Area Character Appraisal, February 2018",
            "sourceOrganisation": "Clackmannanshire Council",
            "sourceRecordId": null,
            "sourceUrl": "https://www.clacks.gov.uk/document/6454.pdf",
            "accessedAt": "2026-07-29",
            "reliability": "local_authority"
          }
        ],
        "extantStatus": "extant",
        "createdAt": "2026-07-29",
        "updatedAt": "2026-07-29",
        "designationType": "Listed Building",
        "designationCategory": "B",
        "designationReference": "LB42053",
        "architectOrDesigner": null,
        "officialRecordUrl": "https://portal.historicenvironment.scot/designation/LB42053",
        "locationType": "designation_point",
        "locationConfidence": "high",
        "coverageLevel": "detailed",
        "liveRefreshRecommended": true
      }
    },
    {
      "type": "Feature",
      "id": "hes-lb13856",
      "geometry": {
        "type": "Point",
        "coordinates": [
          -3.716859,
          56.161996
        ]
      },
      "properties": {
        "id": "hes-lb13856",
        "projectId": "tillicoultry-scotland",
        "name": "Harviestoun Castle Home Farm and Farmhouse Buildings",
        "featureType": "listed_building",
        "documentedDateText": "Circa 1820–1830, with later additions",
        "earliestPossibleYear": 1820,
        "latestPossibleYear": 1830,
        "dateBasis": "documented_date_range",
        "dateConfidence": "high",
        "shortDescription": "Substantial estate farm complex serving Harviestoun Castle.",
        "sourceRecords": [
          {
            "sourceName": "HES designation LB13856",
            "sourceOrganisation": "Historic Environment Scotland",
            "sourceRecordId": "LB13856",
            "sourceUrl": "https://portal.historicenvironment.scot/designation/LB13856",
            "accessedAt": "2026-07-29",
            "reliability": "official_statutory"
          },
          {
            "sourceName": "Tillicoultry Conservation Area Character Appraisal, February 2018",
            "sourceOrganisation": "Clackmannanshire Council",
            "sourceRecordId": null,
            "sourceUrl": "https://www.clacks.gov.uk/document/6454.pdf",
            "accessedAt": "2026-07-29",
            "reliability": "local_authority"
          }
        ],
        "extantStatus": "extant",
        "createdAt": "2026-07-29",
        "updatedAt": "2026-07-29",
        "designationType": "Listed Building",
        "designationCategory": "B",
        "designationReference": "LB13856",
        "architectOrDesigner": null,
        "officialRecordUrl": "https://portal.historicenvironment.scot/designation/LB13856",
        "locationType": "designation_point",
        "locationConfidence": "high",
        "coverageLevel": "detailed",
        "liveRefreshRecommended": true
      }
    },
    {
      "type": "Feature",
      "id": "hes-lb42049",
      "geometry": {
        "type": "Point",
        "coordinates": [
          -3.734828,
          56.151923
        ]
      },
      "properties": {
        "id": "hes-lb42049",
        "projectId": "tillicoultry-scotland",
        "name": "Tillicoultry Manse",
        "featureType": "listed_building",
        "documentedDateText": "1811 and later",
        "earliestPossibleYear": 1811,
        "latestPossibleYear": 1899,
        "dateBasis": "documented_date_range",
        "dateConfidence": "high",
        "shortDescription": "Early-19th-century manse with later alterations.",
        "sourceRecords": [
          {
            "sourceName": "HES designation LB42049",
            "sourceOrganisation": "Historic Environment Scotland",
            "sourceRecordId": "LB42049",
            "sourceUrl": "https://portal.historicenvironment.scot/designation/LB42049",
            "accessedAt": "2026-07-29",
            "reliability": "official_statutory"
          },
          {
            "sourceName": "Tillicoultry Conservation Area Character Appraisal, February 2018",
            "sourceOrganisation": "Clackmannanshire Council",
            "sourceRecordId": null,
            "sourceUrl": "https://www.clacks.gov.uk/document/6454.pdf",
            "accessedAt": "2026-07-29",
            "reliability": "local_authority"
          }
        ],
        "extantStatus": "extant",
        "createdAt": "2026-07-29",
        "updatedAt": "2026-07-29",
        "designationType": "Listed Building",
        "designationCategory": "C",
        "designationReference": "LB42049",
        "architectOrDesigner": null,
        "officialRecordUrl": "https://portal.historicenvironment.scot/designation/LB42049",
        "locationType": "designation_point",
        "locationConfidence": "high",
        "coverageLevel": "detailed",
        "liveRefreshRecommended": true
      }
    },
    {
      "type": "Feature",
      "id": "hes-lb19727",
      "geometry": {
        "type": "Point",
        "coordinates": [
          -3.723868,
          56.137987
        ]
      },
      "properties": {
        "id": "hes-lb19727",
        "projectId": "tillicoultry-scotland",
        "name": "Shannockhill Farmhouse",
        "featureType": "listed_building",
        "documentedDateText": "Early 19th century",
        "earliestPossibleYear": 1800,
        "latestPossibleYear": 1829,
        "dateBasis": "documented_date_range",
        "dateConfidence": "high",
        "shortDescription": "Traditional early-19th-century farmhouse.",
        "sourceRecords": [
          {
            "sourceName": "HES designation LB19727",
            "sourceOrganisation": "Historic Environment Scotland",
            "sourceRecordId": "LB19727",
            "sourceUrl": "https://portal.historicenvironment.scot/designation/LB19727",
            "accessedAt": "2026-07-29",
            "reliability": "official_statutory"
          },
          {
            "sourceName": "Tillicoultry Conservation Area Character Appraisal, February 2018",
            "sourceOrganisation": "Clackmannanshire Council",
            "sourceRecordId": null,
            "sourceUrl": "https://www.clacks.gov.uk/document/6454.pdf",
            "accessedAt": "2026-07-29",
            "reliability": "local_authority"
          }
        ],
        "extantStatus": "extant",
        "createdAt": "2026-07-29",
        "updatedAt": "2026-07-29",
        "designationType": "Listed Building",
        "designationCategory": "C",
        "designationReference": "LB19727",
        "architectOrDesigner": null,
        "officialRecordUrl": "https://portal.historicenvironment.scot/designation/LB19727",
        "locationType": "designation_point",
        "locationConfidence": "high",
        "coverageLevel": "detailed",
        "liveRefreshRecommended": true
      }
    },
    {
      "type": "Feature",
      "id": "hes-lb50034",
      "geometry": {
        "type": "Point",
        "coordinates": [
          -3.738428,
          56.150731
        ]
      },
      "properties": {
        "id": "hes-lb50034",
        "projectId": "tillicoultry-scotland",
        "name": "Devonvale Hall, including Gatepiers",
        "featureType": "listed_building",
        "documentedDateText": "Designed and built 1938–1940",
        "earliestPossibleYear": 1938,
        "latestPossibleYear": 1940,
        "dateBasis": "documented_date_range",
        "dateConfidence": "high",
        "shortDescription": "Intact Art Deco entertainment hall associated with the Devonvale Mills welfare programme.",
        "sourceRecords": [
          {
            "sourceName": "HES designation LB50034",
            "sourceOrganisation": "Historic Environment Scotland",
            "sourceRecordId": "LB50034",
            "sourceUrl": "https://portal.historicenvironment.scot/designation/LB50034",
            "accessedAt": "2026-07-29",
            "reliability": "official_statutory"
          },
          {
            "sourceName": "Tillicoultry Conservation Area Character Appraisal, February 2018",
            "sourceOrganisation": "Clackmannanshire Council",
            "sourceRecordId": null,
            "sourceUrl": "https://www.clacks.gov.uk/document/6454.pdf",
            "accessedAt": "2026-07-29",
            "reliability": "local_authority"
          }
        ],
        "extantStatus": "extant",
        "createdAt": "2026-07-29",
        "updatedAt": "2026-07-29",
        "designationType": "Listed Building",
        "designationCategory": "B",
        "designationReference": "LB50034",
        "architectOrDesigner": "Arthur Bracewell",
        "officialRecordUrl": "https://portal.historicenvironment.scot/designation/LB50034",
        "locationType": "designation_point",
        "locationConfidence": "high",
        "coverageLevel": "detailed",
        "liveRefreshRecommended": true
      }
    },
    {
      "type": "Feature",
      "id": "hes-lb42054",
      "geometry": {
        "type": "Point",
        "coordinates": [
          -3.749567,
          56.157421
        ]
      },
      "properties": {
        "id": "hes-lb42054",
        "projectId": "tillicoultry-scotland",
        "name": "Clock Mill, Upper Mill Street",
        "featureType": "listed_building",
        "documentedDateText": "Dated 1824",
        "earliestPossibleYear": 1824,
        "latestPossibleYear": 1824,
        "dateBasis": "documented_construction",
        "dateConfidence": "high",
        "shortDescription": "Landmark early industrial mill building.",
        "sourceRecords": [
          {
            "sourceName": "HES designation LB42054",
            "sourceOrganisation": "Historic Environment Scotland",
            "sourceRecordId": "LB42054",
            "sourceUrl": "https://portal.historicenvironment.scot/designation/LB42054",
            "accessedAt": "2026-07-29",
            "reliability": "official_statutory"
          },
          {
            "sourceName": "Tillicoultry Conservation Area Character Appraisal, February 2018",
            "sourceOrganisation": "Clackmannanshire Council",
            "sourceRecordId": null,
            "sourceUrl": "https://www.clacks.gov.uk/document/6454.pdf",
            "accessedAt": "2026-07-29",
            "reliability": "local_authority"
          }
        ],
        "extantStatus": "extant",
        "createdAt": "2026-07-29",
        "updatedAt": "2026-07-29",
        "designationType": "Listed Building",
        "designationCategory": "B",
        "designationReference": "LB42054",
        "architectOrDesigner": null,
        "officialRecordUrl": "https://portal.historicenvironment.scot/designation/LB42054",
        "locationType": "designation_point",
        "locationConfidence": "high",
        "coverageLevel": "detailed",
        "liveRefreshRecommended": true
      }
    },
    {
      "type": "Feature",
      "id": "hes-lb42057",
      "geometry": {
        "type": "Point",
        "coordinates": [
          -3.736457,
          56.153428
        ]
      },
      "properties": {
        "id": "hes-lb42057",
        "projectId": "tillicoultry-scotland",
        "name": "Beechwood, Dollar Road",
        "featureType": "listed_building",
        "documentedDateText": "Circa 1860",
        "earliestPossibleYear": 1855,
        "latestPossibleYear": 1865,
        "dateBasis": "estimated_from_authoritative_source",
        "dateConfidence": "high",
        "shortDescription": "Substantial mid-Victorian villa.",
        "sourceRecords": [
          {
            "sourceName": "HES designation LB42057",
            "sourceOrganisation": "Historic Environment Scotland",
            "sourceRecordId": "LB42057",
            "sourceUrl": "https://portal.historicenvironment.scot/designation/LB42057",
            "accessedAt": "2026-07-29",
            "reliability": "official_statutory"
          },
          {
            "sourceName": "Tillicoultry Conservation Area Character Appraisal, February 2018",
            "sourceOrganisation": "Clackmannanshire Council",
            "sourceRecordId": null,
            "sourceUrl": "https://www.clacks.gov.uk/document/6454.pdf",
            "accessedAt": "2026-07-29",
            "reliability": "local_authority"
          }
        ],
        "extantStatus": "extant",
        "createdAt": "2026-07-29",
        "updatedAt": "2026-07-29",
        "designationType": "Listed Building",
        "designationCategory": "B",
        "designationReference": "LB42057",
        "architectOrDesigner": "Adam Frame",
        "officialRecordUrl": "https://portal.historicenvironment.scot/designation/LB42057",
        "locationType": "designation_point",
        "locationConfidence": "high",
        "coverageLevel": "detailed",
        "liveRefreshRecommended": true
      }
    },
    {
      "type": "Feature",
      "id": "hes-lb15204",
      "geometry": {
        "type": "Point",
        "coordinates": [
          -3.721752,
          56.146454
        ]
      },
      "properties": {
        "id": "hes-lb15204",
        "projectId": "tillicoultry-scotland",
        "name": "Devonknowes Farmhouse",
        "featureType": "listed_building",
        "documentedDateText": "Circa 1800 and later",
        "earliestPossibleYear": 1790,
        "latestPossibleYear": 1850,
        "dateBasis": "documented_date_range",
        "dateConfidence": "high",
        "shortDescription": "Traditional farmhouse with an early core and later additions.",
        "sourceRecords": [
          {
            "sourceName": "HES designation LB15204",
            "sourceOrganisation": "Historic Environment Scotland",
            "sourceRecordId": "LB15204",
            "sourceUrl": "https://portal.historicenvironment.scot/designation/LB15204",
            "accessedAt": "2026-07-29",
            "reliability": "official_statutory"
          },
          {
            "sourceName": "Tillicoultry Conservation Area Character Appraisal, February 2018",
            "sourceOrganisation": "Clackmannanshire Council",
            "sourceRecordId": null,
            "sourceUrl": "https://www.clacks.gov.uk/document/6454.pdf",
            "accessedAt": "2026-07-29",
            "reliability": "local_authority"
          }
        ],
        "extantStatus": "extant",
        "createdAt": "2026-07-29",
        "updatedAt": "2026-07-29",
        "designationType": "Listed Building",
        "designationCategory": "C",
        "designationReference": "LB15204",
        "architectOrDesigner": null,
        "officialRecordUrl": "https://portal.historicenvironment.scot/designation/LB15204",
        "locationType": "designation_point",
        "locationConfidence": "high",
        "coverageLevel": "detailed",
        "liveRefreshRecommended": true
      }
    },
    {
      "type": "Feature",
      "id": "hes-lb42050",
      "geometry": {
        "type": "Point",
        "coordinates": [
          -3.745486,
          56.155125
        ]
      },
      "properties": {
        "id": "hes-lb42050",
        "projectId": "tillicoultry-scotland",
        "name": "Tower of Former Popular Institute, Ochil Street",
        "featureType": "listed_building",
        "documentedDateText": "Institute established 1859; tower added 1878; institute demolished 1986",
        "earliestPossibleYear": 1859,
        "latestPossibleYear": 1986,
        "dateBasis": "documented_date_range",
        "dateConfidence": "high",
        "shortDescription": "Surviving clock tower and gable of the former Popular Institute.",
        "sourceRecords": [
          {
            "sourceName": "HES designation LB42050",
            "sourceOrganisation": "Historic Environment Scotland",
            "sourceRecordId": "LB42050",
            "sourceUrl": "https://portal.historicenvironment.scot/designation/LB42050",
            "accessedAt": "2026-07-29",
            "reliability": "official_statutory"
          },
          {
            "sourceName": "Tillicoultry Conservation Area Character Appraisal, February 2018",
            "sourceOrganisation": "Clackmannanshire Council",
            "sourceRecordId": null,
            "sourceUrl": "https://www.clacks.gov.uk/document/6454.pdf",
            "accessedAt": "2026-07-29",
            "reliability": "local_authority"
          }
        ],
        "extantStatus": "extant",
        "createdAt": "2026-07-29",
        "updatedAt": "2026-07-29",
        "designationType": "Listed Building",
        "designationCategory": "B",
        "designationReference": "LB42050",
        "architectOrDesigner": null,
        "officialRecordUrl": "https://portal.historicenvironment.scot/designation/LB42050",
        "locationType": "designation_point",
        "locationConfidence": "high",
        "coverageLevel": "detailed",
        "liveRefreshRecommended": true
      }
    },
    {
      "type": "Feature",
      "id": "hes-lb42058",
      "geometry": {
        "type": "Point",
        "coordinates": [
          -3.748932,
          56.152659
        ]
      },
      "properties": {
        "id": "hes-lb42058",
        "projectId": "tillicoultry-scotland",
        "name": "Former J & D Paton's Woollen Mill, Weavers Way",
        "featureType": "listed_building",
        "documentedDateText": "Firm founded 1824; mill begun 1836; converted to housing in the late 1980s",
        "earliestPossibleYear": 1824,
        "latestPossibleYear": 1989,
        "dateBasis": "documented_date_range",
        "dateConfidence": "high",
        "shortDescription": "Major surviving element of Tillicoultry's woollen industry.",
        "sourceRecords": [
          {
            "sourceName": "HES designation LB42058",
            "sourceOrganisation": "Historic Environment Scotland",
            "sourceRecordId": "LB42058",
            "sourceUrl": "https://portal.historicenvironment.scot/designation/LB42058",
            "accessedAt": "2026-07-29",
            "reliability": "official_statutory"
          },
          {
            "sourceName": "Tillicoultry Conservation Area Character Appraisal, February 2018",
            "sourceOrganisation": "Clackmannanshire Council",
            "sourceRecordId": null,
            "sourceUrl": "https://www.clacks.gov.uk/document/6454.pdf",
            "accessedAt": "2026-07-29",
            "reliability": "local_authority"
          }
        ],
        "extantStatus": "extant",
        "createdAt": "2026-07-29",
        "updatedAt": "2026-07-29",
        "designationType": "Listed Building",
        "designationCategory": "B",
        "designationReference": "LB42058",
        "architectOrDesigner": null,
        "officialRecordUrl": "https://portal.historicenvironment.scot/designation/LB42058",
        "locationType": "designation_point",
        "locationConfidence": "high",
        "coverageLevel": "detailed",
        "liveRefreshRecommended": true
      }
    },
    {
      "type": "Feature",
      "id": "hes-lb42048",
      "geometry": {
        "type": "Point",
        "coordinates": [
          -3.73642,
          56.15346
        ]
      },
      "properties": {
        "id": "hes-lb42048",
        "projectId": "tillicoultry-scotland",
        "name": "Parish Church of St Serf, Dollar Road",
        "featureType": "listed_building",
        "documentedDateText": "Built 1827–1829; hall added 1889; interior recast 1920; bell dated 1670",
        "earliestPossibleYear": 1670,
        "latestPossibleYear": 1920,
        "dateBasis": "documented_date_range",
        "dateConfidence": "high",
        "shortDescription": "Principal historic parish church, incorporating an earlier bell.",
        "sourceRecords": [
          {
            "sourceName": "HES designation LB42048",
            "sourceOrganisation": "Historic Environment Scotland",
            "sourceRecordId": "LB42048",
            "sourceUrl": "https://portal.historicenvironment.scot/designation/LB42048",
            "accessedAt": "2026-07-29",
            "reliability": "official_statutory"
          },
          {
            "sourceName": "Tillicoultry Conservation Area Character Appraisal, February 2018",
            "sourceOrganisation": "Clackmannanshire Council",
            "sourceRecordId": null,
            "sourceUrl": "https://www.clacks.gov.uk/document/6454.pdf",
            "accessedAt": "2026-07-29",
            "reliability": "local_authority"
          }
        ],
        "extantStatus": "extant",
        "createdAt": "2026-07-29",
        "updatedAt": "2026-07-29",
        "designationType": "Listed Building",
        "designationCategory": "B",
        "designationReference": "LB42048",
        "architectOrDesigner": "William Stirling",
        "officialRecordUrl": "https://portal.historicenvironment.scot/designation/LB42048",
        "locationType": "designation_point",
        "locationConfidence": "high",
        "coverageLevel": "detailed",
        "liveRefreshRecommended": true
      }
    },
    {
      "type": "Feature",
      "id": "hes-lb42052",
      "geometry": {
        "type": "Point",
        "coordinates": [
          -3.744907,
          56.153363
        ]
      },
      "properties": {
        "id": "hes-lb42052",
        "projectId": "tillicoultry-scotland",
        "name": "Former West Church",
        "featureType": "listed_building",
        "documentedDateText": "1840",
        "earliestPossibleYear": 1840,
        "latestPossibleYear": 1840,
        "dateBasis": "documented_construction",
        "dateConfidence": "high",
        "shortDescription": "Mid-19th-century former church.",
        "sourceRecords": [
          {
            "sourceName": "HES designation LB42052",
            "sourceOrganisation": "Historic Environment Scotland",
            "sourceRecordId": "LB42052",
            "sourceUrl": "https://portal.historicenvironment.scot/designation/LB42052",
            "accessedAt": "2026-07-29",
            "reliability": "official_statutory"
          },
          {
            "sourceName": "Tillicoultry Conservation Area Character Appraisal, February 2018",
            "sourceOrganisation": "Clackmannanshire Council",
            "sourceRecordId": null,
            "sourceUrl": "https://www.clacks.gov.uk/document/6454.pdf",
            "accessedAt": "2026-07-29",
            "reliability": "local_authority"
          }
        ],
        "extantStatus": "extant",
        "createdAt": "2026-07-29",
        "updatedAt": "2026-07-29",
        "designationType": "Listed Building",
        "designationCategory": "C",
        "designationReference": "LB42052",
        "architectOrDesigner": null,
        "officialRecordUrl": "https://portal.historicenvironment.scot/designation/LB42052",
        "locationType": "designation_point",
        "locationConfidence": "high",
        "coverageLevel": "detailed",
        "liveRefreshRecommended": true
      }
    },
    {
      "type": "Feature",
      "id": "hes-lb15205",
      "geometry": {
        "type": "Point",
        "coordinates": [
          -3.717344,
          56.161666
        ]
      },
      "properties": {
        "id": "hes-lb15205",
        "projectId": "tillicoultry-scotland",
        "name": "Harviestoun Castle Stable Block",
        "featureType": "listed_building",
        "documentedDateText": "Late 18th century; associated castle gutted in 1965",
        "earliestPossibleYear": 1775,
        "latestPossibleYear": 1965,
        "dateBasis": "documented_date_range",
        "dateConfidence": "high",
        "shortDescription": "Late-18th-century estate stable block.",
        "sourceRecords": [
          {
            "sourceName": "HES designation LB15205",
            "sourceOrganisation": "Historic Environment Scotland",
            "sourceRecordId": "LB15205",
            "sourceUrl": "https://portal.historicenvironment.scot/designation/LB15205",
            "accessedAt": "2026-07-29",
            "reliability": "official_statutory"
          },
          {
            "sourceName": "Tillicoultry Conservation Area Character Appraisal, February 2018",
            "sourceOrganisation": "Clackmannanshire Council",
            "sourceRecordId": null,
            "sourceUrl": "https://www.clacks.gov.uk/document/6454.pdf",
            "accessedAt": "2026-07-29",
            "reliability": "local_authority"
          }
        ],
        "extantStatus": "extant",
        "createdAt": "2026-07-29",
        "updatedAt": "2026-07-29",
        "designationType": "Listed Building",
        "designationCategory": "B",
        "designationReference": "LB15205",
        "architectOrDesigner": null,
        "officialRecordUrl": "https://portal.historicenvironment.scot/designation/LB15205",
        "locationType": "designation_point",
        "locationConfidence": "high",
        "coverageLevel": "detailed",
        "liveRefreshRecommended": true
      }
    },
    {
      "type": "Feature",
      "id": "hes-lb42056",
      "geometry": {
        "type": "Point",
        "coordinates": [
          -3.734072,
          56.158736
        ]
      },
      "properties": {
        "id": "hes-lb42056",
        "projectId": "tillicoultry-scotland",
        "name": "Old Churchyard, Tillicoultry House",
        "featureType": "listed_building",
        "documentedDateText": "Church site from the 12th century; 16th- and 17th-century stones include a headstone dated 1723",
        "earliestPossibleYear": 1100,
        "latestPossibleYear": 1723,
        "dateBasis": "documented_date_range",
        "dateConfidence": "high",
        "shortDescription": "Old parish churchyard containing early gravestones and the pre-Reformation church site.",
        "sourceRecords": [
          {
            "sourceName": "HES designation LB42056",
            "sourceOrganisation": "Historic Environment Scotland",
            "sourceRecordId": "LB42056",
            "sourceUrl": "https://portal.historicenvironment.scot/designation/LB42056",
            "accessedAt": "2026-07-29",
            "reliability": "official_statutory"
          },
          {
            "sourceName": "Tillicoultry Conservation Area Character Appraisal, February 2018",
            "sourceOrganisation": "Clackmannanshire Council",
            "sourceRecordId": null,
            "sourceUrl": "https://www.clacks.gov.uk/document/6454.pdf",
            "accessedAt": "2026-07-29",
            "reliability": "local_authority"
          }
        ],
        "extantStatus": "extant",
        "createdAt": "2026-07-29",
        "updatedAt": "2026-07-29",
        "designationType": "Listed Building",
        "designationCategory": "B",
        "designationReference": "LB42056",
        "architectOrDesigner": null,
        "officialRecordUrl": "https://portal.historicenvironment.scot/designation/LB42056",
        "locationType": "designation_point",
        "locationConfidence": "high",
        "coverageLevel": "detailed",
        "liveRefreshRecommended": true
      }
    },
    {
      "type": "Feature",
      "id": "hes-lb15165",
      "geometry": {
        "type": "Point",
        "coordinates": [
          -3.727564,
          56.156886
        ]
      },
      "properties": {
        "id": "hes-lb15165",
        "projectId": "tillicoultry-scotland",
        "name": "Tillicoultry Mains Steading",
        "featureType": "listed_building",
        "documentedDateText": "Circa 1837–1838",
        "earliestPossibleYear": 1837,
        "latestPossibleYear": 1838,
        "dateBasis": "documented_date_range",
        "dateConfidence": "high",
        "shortDescription": "Carefully designed early-Victorian estate steading.",
        "sourceRecords": [
          {
            "sourceName": "HES designation LB15165",
            "sourceOrganisation": "Historic Environment Scotland",
            "sourceRecordId": "LB15165",
            "sourceUrl": "https://portal.historicenvironment.scot/designation/LB15165",
            "accessedAt": "2026-07-29",
            "reliability": "official_statutory"
          },
          {
            "sourceName": "Tillicoultry Conservation Area Character Appraisal, February 2018",
            "sourceOrganisation": "Clackmannanshire Council",
            "sourceRecordId": null,
            "sourceUrl": "https://www.clacks.gov.uk/document/6454.pdf",
            "accessedAt": "2026-07-29",
            "reliability": "local_authority"
          }
        ],
        "extantStatus": "extant",
        "createdAt": "2026-07-29",
        "updatedAt": "2026-07-29",
        "designationType": "Listed Building",
        "designationCategory": "B",
        "designationReference": "LB15165",
        "architectOrDesigner": "William Stirling",
        "officialRecordUrl": "https://portal.historicenvironment.scot/designation/LB15165",
        "locationType": "designation_point",
        "locationConfidence": "high",
        "coverageLevel": "detailed",
        "liveRefreshRecommended": true
      }
    },
    {
      "type": "Feature",
      "id": "hes-lb42055",
      "geometry": {
        "type": "Point",
        "coordinates": [
          -3.749423,
          56.157441
        ]
      },
      "properties": {
        "id": "hes-lb42055",
        "projectId": "tillicoultry-scotland",
        "name": "Bridge over Tillicoultry Burn at Clock Mill",
        "featureType": "listed_building",
        "documentedDateText": "Probably early 19th century, likely associated with the 1824 Clock Mill",
        "earliestPossibleYear": 1800,
        "latestPossibleYear": 1824,
        "dateBasis": "estimated_from_authoritative_source",
        "dateConfidence": "medium",
        "shortDescription": "Stone bridge associated with the Clock Mill and burnside industry.",
        "sourceRecords": [
          {
            "sourceName": "HES designation LB42055",
            "sourceOrganisation": "Historic Environment Scotland",
            "sourceRecordId": "LB42055",
            "sourceUrl": "https://portal.historicenvironment.scot/designation/LB42055",
            "accessedAt": "2026-07-29",
            "reliability": "official_statutory"
          },
          {
            "sourceName": "Tillicoultry Conservation Area Character Appraisal, February 2018",
            "sourceOrganisation": "Clackmannanshire Council",
            "sourceRecordId": null,
            "sourceUrl": "https://www.clacks.gov.uk/document/6454.pdf",
            "accessedAt": "2026-07-29",
            "reliability": "local_authority"
          }
        ],
        "extantStatus": "extant",
        "createdAt": "2026-07-29",
        "updatedAt": "2026-07-29",
        "designationType": "Listed Building",
        "designationCategory": "B",
        "designationReference": "LB42055",
        "architectOrDesigner": null,
        "officialRecordUrl": "https://portal.historicenvironment.scot/designation/LB42055",
        "locationType": "designation_point",
        "locationConfidence": "high",
        "coverageLevel": "detailed",
        "liveRefreshRecommended": true
      }
    },
    {
      "type": "Feature",
      "id": "hes-sm2328",
      "geometry": {
        "type": "Point",
        "coordinates": [
          -3.734072,
          56.158736
        ]
      },
      "properties": {
        "id": "hes-sm2328",
        "projectId": "tillicoultry-scotland",
        "name": "Hogback or Coped Grave Cover in Tillicoultry Old Churchyard",
        "featureType": "scheduled_monument",
        "documentedDateText": "Probably 12th century",
        "earliestPossibleYear": 1100,
        "latestPossibleYear": 1199,
        "dateBasis": "estimated_from_authoritative_source",
        "dateConfidence": "high",
        "shortDescription": "Important medieval carved grave cover associated with the early church site.",
        "sourceRecords": [
          {
            "sourceName": "HES designation SM2328",
            "sourceOrganisation": "Historic Environment Scotland",
            "sourceRecordId": "SM2328",
            "sourceUrl": "https://portal.historicenvironment.scot/designation/SM2328",
            "accessedAt": "2026-07-29",
            "reliability": "official_statutory"
          },
          {
            "sourceName": "Tillicoultry coped grave cover",
            "sourceOrganisation": "Corpus of Romanesque Sculpture in Britain and Ireland",
            "sourceRecordId": null,
            "sourceUrl": "https://www.crsbi.ac.uk/view-item?i=11861",
            "accessedAt": "2026-07-29",
            "reliability": "academic"
          }
        ],
        "extantStatus": "extant",
        "createdAt": "2026-07-29",
        "updatedAt": "2026-07-29",
        "designationType": "Scheduled Monument",
        "designationReference": "SM2328",
        "locationType": "representative_point_within_old_churchyard",
        "locationConfidence": "medium",
        "coverageLevel": "detailed",
        "liveRefreshRecommended": true
      }
    },
    {
      "type": "Feature",
      "id": "context-medieval-parish",
      "geometry": {
        "type": "Point",
        "coordinates": [
          -3.734072,
          56.158736
        ]
      },
      "properties": {
        "id": "context-medieval-parish",
        "projectId": "tillicoultry-scotland",
        "name": "Medieval parish and church site",
        "featureType": "ecclesiastical_site",
        "documentedDateText": "Established by the 12th century",
        "earliestPossibleYear": 1100,
        "latestPossibleYear": 1199,
        "dateBasis": "estimated_from_authoritative_source",
        "dateConfidence": "high",
        "shortDescription": "Early parish focus represented by the old churchyard and carved grave cover.",
        "sourceRecords": [
          {
            "sourceName": "Tillicoultry Conservation Area Character Appraisal, February 2018",
            "sourceOrganisation": "Clackmannanshire Council",
            "sourceRecordId": null,
            "sourceUrl": "https://www.clacks.gov.uk/document/6454.pdf",
            "accessedAt": "2026-07-29",
            "reliability": "local_authority"
          }
        ],
        "extantStatus": "archaeological_and_burial_ground",
        "createdAt": "2026-07-29",
        "updatedAt": "2026-07-29",
        "designationType": "Contextual Heritage Record",
        "coverageLevel": "contextual_evidence",
        "locationType": "mapped_or_pending_as_stated",
        "locationConfidence": "medium",
        "liveRefreshRecommended": false
      }
    },
    {
      "type": "Feature",
      "id": "context-patons",
      "geometry": {
        "type": "Point",
        "coordinates": [
          -3.748932,
          56.152659
        ]
      },
      "properties": {
        "id": "context-patons",
        "projectId": "tillicoultry-scotland",
        "name": "J & D Paton textile enterprise",
        "featureType": "industrial_development_phase",
        "documentedDateText": "Firm founded 1824; major mill begun 1836",
        "earliestPossibleYear": 1824,
        "latestPossibleYear": 1836,
        "dateBasis": "documented_date_range",
        "dateConfidence": "high",
        "shortDescription": "Defining 19th-century textile enterprise.",
        "sourceRecords": [
          {
            "sourceName": "HES designation LB42058",
            "sourceOrganisation": "Historic Environment Scotland",
            "sourceRecordId": "LB42058",
            "sourceUrl": "https://portal.historicenvironment.scot/designation/LB42058",
            "accessedAt": "2026-07-29",
            "reliability": "official_statutory"
          },
          {
            "sourceName": "Tillicoultry Conservation Area Character Appraisal, February 2018",
            "sourceOrganisation": "Clackmannanshire Council",
            "sourceRecordId": null,
            "sourceUrl": "https://www.clacks.gov.uk/document/6454.pdf",
            "accessedAt": "2026-07-29",
            "reliability": "local_authority"
          }
        ],
        "extantStatus": "partly_surviving",
        "createdAt": "2026-07-29",
        "updatedAt": "2026-07-29",
        "designationType": "Contextual Heritage Record",
        "coverageLevel": "contextual_evidence",
        "locationType": "mapped_or_pending_as_stated",
        "locationConfidence": "medium",
        "liveRefreshRecommended": false
      }
    },
    {
      "type": "Feature",
      "id": "context-popular-institute",
      "geometry": {
        "type": "Point",
        "coordinates": [
          -3.745486,
          56.155125
        ]
      },
      "properties": {
        "id": "context-popular-institute",
        "projectId": "tillicoultry-scotland",
        "name": "Popular Institute and Clock Tower",
        "featureType": "civic_development_phase",
        "documentedDateText": "Institute 1859; tower 1878; institute demolished 1986",
        "earliestPossibleYear": 1859,
        "latestPossibleYear": 1986,
        "dateBasis": "documented_date_range",
        "dateConfidence": "high",
        "shortDescription": "Civic institution now represented by its surviving tower.",
        "sourceRecords": [
          {
            "sourceName": "HES designation LB42050",
            "sourceOrganisation": "Historic Environment Scotland",
            "sourceRecordId": "LB42050",
            "sourceUrl": "https://portal.historicenvironment.scot/designation/LB42050",
            "accessedAt": "2026-07-29",
            "reliability": "official_statutory"
          },
          {
            "sourceName": "Tillicoultry Conservation Area Character Appraisal, February 2018",
            "sourceOrganisation": "Clackmannanshire Council",
            "sourceRecordId": null,
            "sourceUrl": "https://www.clacks.gov.uk/document/6454.pdf",
            "accessedAt": "2026-07-29",
            "reliability": "local_authority"
          }
        ],
        "extantStatus": "partly_surviving",
        "createdAt": "2026-07-29",
        "updatedAt": "2026-07-29",
        "designationType": "Contextual Heritage Record",
        "coverageLevel": "contextual_evidence",
        "locationType": "mapped_or_pending_as_stated",
        "locationConfidence": "medium",
        "liveRefreshRecommended": false
      }
    },
    {
      "type": "Feature",
      "id": "context-devonvale",
      "geometry": {
        "type": "Point",
        "coordinates": [
          -3.738428,
          56.150731
        ]
      },
      "properties": {
        "id": "context-devonvale",
        "projectId": "tillicoultry-scotland",
        "name": "Devonvale industrial community",
        "featureType": "industrial_and_social_development",
        "documentedDateText": "Works from 1921; housing from 1934; hall built 1938–1940",
        "earliestPossibleYear": 1921,
        "latestPossibleYear": 1940,
        "dateBasis": "documented_date_range",
        "dateConfidence": "high",
        "shortDescription": "Integrated interwar workplace, housing and leisure development.",
        "sourceRecords": [
          {
            "sourceName": "HES designation LB50034",
            "sourceOrganisation": "Historic Environment Scotland",
            "sourceRecordId": "LB50034",
            "sourceUrl": "https://portal.historicenvironment.scot/designation/LB50034",
            "accessedAt": "2026-07-29",
            "reliability": "official_statutory"
          }
        ],
        "extantStatus": "partly_surviving",
        "createdAt": "2026-07-29",
        "updatedAt": "2026-07-29",
        "designationType": "Contextual Heritage Record",
        "coverageLevel": "contextual_evidence",
        "locationType": "mapped_or_pending_as_stated",
        "locationConfidence": "medium",
        "liveRefreshRecommended": false
      }
    }
  ]
}