{
  "type": "FeatureCollection",
  "name": "Tillicoultry Memorials and Plaques",
  "metadata": {
    "featureCount": 8,
    "createdAt": "2026-07-29",
    "attribution": "Contains Historic Environment Scotland and OS data © Historic Environment Scotland and Crown Copyright and database right 2026, licensed under the Open Government Licence v3.0."
  },
  "features": [
    {
      "type": "Feature",
      "id": "mem-ww1",
      "geometry": {
        "type": "Point",
        "coordinates": [
          -3.7314742,
          56.1539651
        ]
      },
      "properties": {
        "id": "mem-ww1",
        "projectId": "tillicoultry-scotland",
        "name": "Tillicoultry First World War Memorial",
        "featureType": "war_memorial",
        "documentedDateText": "Unveiled 23 October 1921",
        "earliestPossibleYear": 1921,
        "latestPossibleYear": 1921,
        "dateBasis": "documented_construction",
        "dateConfidence": "high",
        "shortDescription": "Contemplative female figure with wreath on a granite pedestal, commemorating 64 dead.",
        "sourceRecords": [
          {
            "sourceName": "Tillicoultry First World War Memorial",
            "sourceOrganisation": "Imperial War Museums — War Memorials Register",
            "sourceRecordId": "WMR 5772",
            "sourceUrl": "https://www.iwm.org.uk/memorials/item/memorial/5772",
            "accessedAt": "2026-07-29",
            "reliability": "official_non_statutory"
          }
        ],
        "extantStatus": "extant_or_verify",
        "createdAt": "2026-07-29",
        "updatedAt": "2026-07-29",
        "designationType": "Memorial, Public Art, Plaque or Inscription",
        "locationText": "Tillicoultry Cemetery",
        "locationType": "exact_representative_or_pending",
        "locationConfidence": "high",
        "coverageLevel": "memorial_public_art_inventory"
      }
    },
    {
      "type": "Feature",
      "id": "mem-ww2",
      "geometry": {
        "type": "Point",
        "coordinates": [
          -3.7314742,
          56.1539651
        ]
      },
      "properties": {
        "id": "mem-ww2",
        "projectId": "tillicoultry-scotland",
        "name": "Tillicoultry Second World War Garden of Remembrance",
        "featureType": "war_memorial_garden",
        "documentedDateText": "Unveiled and dedicated 7 November 1948",
        "earliestPossibleYear": 1948,
        "latestPossibleYear": 1948,
        "dateBasis": "documented_construction",
        "dateConfidence": "high",
        "shortDescription": "Thirty-two individual commemorative stones arranged behind the First World War memorial.",
        "sourceRecords": [
          {
            "sourceName": "Tillicoultry Second World War Garden of Remembrance",
            "sourceOrganisation": "Imperial War Museums — War Memorials Register",
            "sourceRecordId": "WMR 5773",
            "sourceUrl": "https://www.iwm.org.uk/memorials/item/memorial/5773",
            "accessedAt": "2026-07-29",
            "reliability": "official_non_statutory"
          }
        ],
        "extantStatus": "extant_or_verify",
        "createdAt": "2026-07-29",
        "updatedAt": "2026-07-29",
        "designationType": "Memorial, Public Art, Plaque or Inscription",
        "locationText": "Tillicoultry Cemetery",
        "locationType": "exact_representative_or_pending",
        "locationConfidence": "high",
        "coverageLevel": "memorial_public_art_inventory"
      }
    },
    {
      "type": "Feature",
      "id": "plaque-church-ww1",
      "geometry": {
        "type": "Point",
        "coordinates": [
          -3.73642,
          56.15346
        ]
      },
      "properties": {
        "id": "plaque-church-ww1",
        "projectId": "tillicoultry-scotland",
        "name": "St Serf's Parish Church First World War Plaque",
        "featureType": "wall_plaque",
        "documentedDateText": "Installed approximately 1919–1925",
        "earliestPossibleYear": 1919,
        "latestPossibleYear": 1925,
        "dateBasis": "estimated_from_authoritative_source",
        "dateConfidence": "medium",
        "shortDescription": "Bronze roll-of-honour plaque in a walnut frame.",
        "sourceRecords": [
          {
            "sourceName": "Tillicoultry Parish Church First World War Plaque",
            "sourceOrganisation": "Imperial War Museums — War Memorials Register",
            "sourceRecordId": "WMR 82927",
            "sourceUrl": "https://www.iwm.org.uk/memorials/item/memorial/82927",
            "accessedAt": "2026-07-29",
            "reliability": "official_non_statutory"
          }
        ],
        "extantStatus": "extant_or_verify",
        "createdAt": "2026-07-29",
        "updatedAt": "2026-07-29",
        "designationType": "Memorial, Public Art, Plaque or Inscription",
        "locationText": "St Serf's Parish Church",
        "locationType": "exact_representative_or_pending",
        "locationConfidence": "high",
        "coverageLevel": "memorial_public_art_inventory"
      }
    },
    {
      "type": "Feature",
      "id": "plaque-church-ww2",
      "geometry": {
        "type": "Point",
        "coordinates": [
          -3.73642,
          56.15346
        ]
      },
      "properties": {
        "id": "plaque-church-ww2",
        "projectId": "tillicoultry-scotland",
        "name": "St Serf's Parish Church Second World War Plaque",
        "featureType": "wall_plaque",
        "documentedDateText": "Installed approximately 1945–1955",
        "earliestPossibleYear": 1945,
        "latestPossibleYear": 1955,
        "dateBasis": "estimated_from_authoritative_source",
        "dateConfidence": "medium",
        "shortDescription": "Bronze plaque commemorating local Second World War dead.",
        "sourceRecords": [
          {
            "sourceName": "Tillicoultry Parish Church Second World War Plaque",
            "sourceOrganisation": "Imperial War Museums — War Memorials Register",
            "sourceRecordId": "WMR 83141",
            "sourceUrl": "https://www.iwm.org.uk/memorials/item/memorial/83141",
            "accessedAt": "2026-07-29",
            "reliability": "official_non_statutory"
          }
        ],
        "extantStatus": "extant_or_verify",
        "createdAt": "2026-07-29",
        "updatedAt": "2026-07-29",
        "designationType": "Memorial, Public Art, Plaque or Inscription",
        "locationText": "St Serf's Parish Church",
        "locationType": "exact_representative_or_pending",
        "locationConfidence": "high",
        "coverageLevel": "memorial_public_art_inventory"
      }
    },
    {
      "type": "Feature",
      "id": "plaque-devonvale-date",
      "geometry": {
        "type": "Point",
        "coordinates": [
          -3.738428,
          56.150731
        ]
      },
      "properties": {
        "id": "plaque-devonvale-date",
        "projectId": "tillicoultry-scotland",
        "name": "Devonvale Hall Date Plaque",
        "featureType": "architectural_date_plaque",
        "documentedDateText": "Dated 1938",
        "earliestPossibleYear": 1938,
        "latestPossibleYear": 1938,
        "dateBasis": "documented_construction",
        "dateConfidence": "high",
        "shortDescription": "Art Deco plaque reading 'DEVONVALE / 19 HALL 38' with butterfly motifs.",
        "sourceRecords": [
          {
            "sourceName": "HES designation LB50034",
            "sourceOrganisation": "Historic Environment Scotland",
            "sourceRecordId": "LB50034",
            "sourceUrl": "https://portal.historicenvironment.scot/designation/LB50034",
            "accessedAt": "2026-07-29",
            "reliability": "official_statutory"
          }
        ],
        "extantStatus": "extant_or_verify",
        "createdAt": "2026-07-29",
        "updatedAt": "2026-07-29",
        "designationType": "Memorial, Public Art, Plaque or Inscription",
        "locationText": "Principal elevation of Devonvale Hall",
        "locationType": "exact_representative_or_pending",
        "locationConfidence": "high",
        "coverageLevel": "memorial_public_art_inventory"
      }
    },
    {
      "type": "Feature",
      "id": "plaque-devonvale-foundation",
      "geometry": {
        "type": "Point",
        "coordinates": [
          -3.738428,
          56.150731
        ]
      },
      "properties": {
        "id": "plaque-devonvale-foundation",
        "projectId": "tillicoultry-scotland",
        "name": "Devonvale Hall Foundation-Stone Plaque",
        "featureType": "foundation_stone_plaque",
        "documentedDateText": "Installed during construction, 1938–1940",
        "earliestPossibleYear": 1938,
        "latestPossibleYear": 1940,
        "dateBasis": "documented_date_range",
        "dateConfidence": "high",
        "shortDescription": "Bronze plaque commemorating the laying of the foundation stone.",
        "sourceRecords": [
          {
            "sourceName": "HES designation LB50034",
            "sourceOrganisation": "Historic Environment Scotland",
            "sourceRecordId": "LB50034",
            "sourceUrl": "https://portal.historicenvironment.scot/designation/LB50034",
            "accessedAt": "2026-07-29",
            "reliability": "official_statutory"
          }
        ],
        "extantStatus": "extant_or_verify",
        "createdAt": "2026-07-29",
        "updatedAt": "2026-07-29",
        "designationType": "Memorial, Public Art, Plaque or Inscription",
        "locationText": "Right of the main entrance, Devonvale Hall",
        "locationType": "exact_representative_or_pending",
        "locationConfidence": "high",
        "coverageLevel": "memorial_public_art_inventory"
      }
    },
    {
      "type": "Feature",
      "id": "mem-clock-gift",
      "geometry": {
        "type": "Point",
        "coordinates": [
          -3.745486,
          56.155125
        ]
      },
      "properties": {
        "id": "mem-clock-gift",
        "projectId": "tillicoultry-scotland",
        "name": "Popular Institute Clock Tower Civic Gift",
        "featureType": "commemorative_clock_tower",
        "documentedDateText": "Added in 1878",
        "earliestPossibleYear": 1878,
        "latestPossibleYear": 1878,
        "dateBasis": "documented_construction",
        "dateConfidence": "high",
        "shortDescription": "Clock tower presented by mill owner James Archibald to the Popular Institute.",
        "sourceRecords": [
          {
            "sourceName": "HES designation LB42050",
            "sourceOrganisation": "Historic Environment Scotland",
            "sourceRecordId": "LB42050",
            "sourceUrl": "https://portal.historicenvironment.scot/designation/LB42050",
            "accessedAt": "2026-07-29",
            "reliability": "official_statutory"
          },
          {
            "sourceName": "Tillicoultry Conservation Area Character Appraisal, February 2018",
            "sourceOrganisation": "Clackmannanshire Council",
            "sourceRecordId": null,
            "sourceUrl": "https://www.clacks.gov.uk/document/6454.pdf",
            "accessedAt": "2026-07-29",
            "reliability": "local_authority"
          }
        ],
        "extantStatus": "extant_or_verify",
        "createdAt": "2026-07-29",
        "updatedAt": "2026-07-29",
        "designationType": "Memorial, Public Art, Plaque or Inscription",
        "locationText": "Ochil Street",
        "locationType": "exact_representative_or_pending",
        "locationConfidence": "high",
        "coverageLevel": "memorial_public_art_inventory"
      }
    },
    {
      "type": "Feature",
      "id": "mem-conservation-2016",
      "geometry": {
        "type": "Point",
        "coordinates": [
          -3.7314742,
          56.1539651
        ]
      },
      "properties": {
        "id": "mem-conservation-2016",
        "projectId": "tillicoultry-scotland",
        "name": "War Memorial Conservation Works",
        "featureType": "memorial_conservation_event",
        "documentedDateText": "Cleaning and conservation reported in 2016",
        "earliestPossibleYear": 2016,
        "latestPossibleYear": 2016,
        "dateBasis": "documented_construction",
        "dateConfidence": "medium",
        "shortDescription": "Modern conservation campaign affecting the principal war memorials.",
        "sourceRecords": [
          {
            "sourceName": "Tillicoultry Second World War Garden of Remembrance",
            "sourceOrganisation": "Imperial War Museums — War Memorials Register",
            "sourceRecordId": "WMR 5773",
            "sourceUrl": "https://www.iwm.org.uk/memorials/item/memorial/5773",
            "accessedAt": "2026-07-29",
            "reliability": "official_non_statutory"
          }
        ],
        "extantStatus": "extant_or_verify",
        "createdAt": "2026-07-29",
        "updatedAt": "2026-07-29",
        "designationType": "Memorial, Public Art, Plaque or Inscription",
        "locationText": "Tillicoultry Cemetery",
        "locationType": "exact_representative_or_pending",
        "locationConfidence": "high",
        "coverageLevel": "memorial_public_art_inventory"
      }
    }
  ]
}