{
  "type": "FeatureCollection",
  "name": "Alva Memorials, Public Art, Plaques and Inscriptions",
  "crs": {
    "type": "name",
    "properties": {
      "name": "urn:ogc:def:crs:OGC:1.3:CRS84"
    }
  },
  "metadata": {
    "createdAt": "2026-07-29",
    "projectId": "alva-scotland",
    "featureCount": 13,
    "warning": "Cemetery points are representative; some exact locations require field verification.",
    "attribution": "Contains Historic Environment Scotland and OS data © Historic Environment Scotland and Crown Copyright and database right 2026, licensed under the Open Government Licence v3.0."
  },
  "features": [
    {
      "type": "Feature",
      "id": "memorial-alva-war-memorial",
      "geometry": {
        "type": "Point",
        "coordinates": [
          -3.807434,
          56.154953
        ]
      },
      "properties": {
        "id": "memorial-alva-war-memorial",
        "projectId": "alva-scotland",
        "name": "Alva War Memorial",
        "alternativeNames": [],
        "countryCode": "GB",
        "nation": "Scotland",
        "region": "Clackmannanshire",
        "locality": "Alva",
        "featureType": "war_memorial",
        "designationType": "Memorial, Public Art, Plaque or Inscription",
        "designationCategory": null,
        "statutoryStatus": "Separate commemorative and public-art inventory; statutory status varies",
        "locationType": "exact_or_representative_point",
        "locationConfidence": "high",
        "locationText": "Cochrane Park, Beauclerc Street",
        "documentedDateText": "Unveiled and dedicated on 21 October 1923; Second World War additions unveiled in June 1951",
        "earliestPossibleYear": 1923,
        "latestPossibleYear": 1951,
        "dateBasis": "documented_date_range",
        "dateConfidence": "high",
        "datePrecision": "documented_or_conflict_range",
        "description": "Celtic cross with bronze name plaques, winged cherub and Sword of Sacrifice; 138 First World War and 37 Second World War names.",
        "shortDescription": "Celtic cross with bronze name plaques, winged cherub and Sword of Sacrifice; 138 First World War and 37 Second World War names.",
        "fullDescription": "Celtic cross with bronze name plaques, winged cherub and Sword of Sacrifice; 138 First World War and 37 Second World War names.",
        "designerOrMaker": "William Kerr; bronze plaques by Charles Henshaw; carving by Holmes & Jackson",
        "architectOrDesigner": "William Kerr; bronze plaques by Charles Henshaw; carving by Holmes & Jackson",
        "registerIds": [
          "IWM WMR 6029",
          "War Memorials Online 151036"
        ],
        "sourceRecords": [
          {
            "sourceName": "Alva War Memorial",
            "sourceOrganisation": "Imperial War Museums — War Memorials Register",
            "sourceRecordId": "WMR 6029",
            "sourceUrl": "https://www.iwm.org.uk/memorials/item/memorial/6029",
            "accessedAt": "2026-07-29",
            "licence": "Link to the register; confirm reuse terms before reproducing images or long text.",
            "reliability": "official_non_statutory"
          },
          {
            "sourceName": "Alva War Memorial",
            "sourceOrganisation": "War Memorials Online",
            "sourceRecordId": "WMO 151036",
            "sourceUrl": "https://www.warmemorialsonline.org.uk/memorial/151036",
            "accessedAt": "2026-07-29",
            "licence": "Check register reuse terms.",
            "reliability": "official_non_statutory"
          }
        ],
        "scope": "within_alva",
        "status": "extant",
        "extantStatus": "extant",
        "licence": "See source records.",
        "tags": [
          "war_memorial",
          "memorials and public art"
        ],
        "createdAt": "2026-07-29",
        "updatedAt": "2026-07-29",
        "reviewed": true,
        "coverageLevel": "memorial_public_art_inventory",
        "studyAreaSection": "Alva memorials, inscriptions and nearby public art",
        "liveRefreshRecommended": false,
        "heatmapScoring": {
          "ageFactor": 0.35,
          "significanceFactor": 0.45,
          "confidenceFactor": 1,
          "survivalFactor": 0.6,
          "provisionalWeight": 0.0945,
          "warning": "Interpretive app weight only; not an official heritage assessment."
        }
      }
    },
    {
      "type": "Feature",
      "id": "memorial-alva-war-memorial-refurbishment",
      "geometry": {
        "type": "Point",
        "coordinates": [
          -3.807434,
          56.154953
        ]
      },
      "properties": {
        "id": "memorial-alva-war-memorial-refurbishment",
        "projectId": "alva-scotland",
        "name": "Alva War Memorial 1998 refurbishment",
        "alternativeNames": [],
        "countryCode": "GB",
        "nation": "Scotland",
        "region": "Clackmannanshire",
        "locality": "Alva",
        "featureType": "memorial_conservation_event",
        "designationType": "Memorial, Public Art, Plaque or Inscription",
        "designationCategory": null,
        "statutoryStatus": "Separate commemorative and public-art inventory; statutory status varies",
        "locationType": "exact_or_representative_point",
        "locationConfidence": "high",
        "locationText": "Cochrane Park, Beauclerc Street",
        "documentedDateText": "Refurbished in spring 1998",
        "earliestPossibleYear": 1998,
        "latestPossibleYear": 1998,
        "dateBasis": "documented_construction",
        "dateConfidence": "high",
        "datePrecision": "exact_year",
        "description": "£10,000 conservation and refurbishment programme.",
        "shortDescription": "£10,000 conservation and refurbishment programme.",
        "fullDescription": "£10,000 conservation and refurbishment programme.",
        "designerOrMaker": null,
        "architectOrDesigner": null,
        "registerIds": [
          "IWM WMR 6029"
        ],
        "sourceRecords": [
          {
            "sourceName": "Alva War Memorial",
            "sourceOrganisation": "Imperial War Museums — War Memorials Register",
            "sourceRecordId": "WMR 6029",
            "sourceUrl": "https://www.iwm.org.uk/memorials/item/memorial/6029",
            "accessedAt": "2026-07-29",
            "licence": "Link to the register; confirm reuse terms before reproducing images or long text.",
            "reliability": "official_non_statutory"
          }
        ],
        "scope": "within_alva",
        "status": "completed_conservation_event",
        "extantStatus": "completed_conservation_event",
        "licence": "See source records.",
        "tags": [
          "memorial_conservation_event",
          "memorials and public art"
        ],
        "createdAt": "2026-07-29",
        "updatedAt": "2026-07-29",
        "reviewed": true,
        "coverageLevel": "memorial_public_art_inventory",
        "studyAreaSection": "Alva memorials, inscriptions and nearby public art",
        "liveRefreshRecommended": false,
        "heatmapScoring": {
          "ageFactor": 0.12,
          "significanceFactor": 0.45,
          "confidenceFactor": 1,
          "survivalFactor": 0.6,
          "provisionalWeight": 0.0324,
          "warning": "Interpretive app weight only; not an official heritage assessment."
        }
      }
    },
    {
      "type": "Feature",
      "id": "plaque-alva-parish-church-ww1",
      "geometry": {
        "type": "Point",
        "coordinates": [
          -3.7915594,
          56.1546271
        ]
      },
      "properties": {
        "id": "plaque-alva-parish-church-ww1",
        "projectId": "alva-scotland",
        "name": "Alva Parish Church First World War Memorial Plaque",
        "alternativeNames": [],
        "countryCode": "GB",
        "nation": "Scotland",
        "region": "Clackmannanshire",
        "locality": "Alva",
        "featureType": "wall_plaque",
        "designationType": "Memorial, Public Art, Plaque or Inscription",
        "designationCategory": null,
        "statutoryStatus": "Separate commemorative and public-art inventory; statutory status varies",
        "locationType": "exact_or_representative_point",
        "locationConfidence": "high",
        "locationText": "Alva Cemetery waiting room; formerly Alva Parish Church",
        "documentedDateText": "Unveiled and dedicated on 16 September 1923; moved to the cemetery waiting room around 1984–1985",
        "earliestPossibleYear": 1923,
        "latestPossibleYear": 1985,
        "dateBasis": "documented_date_range",
        "dateConfidence": "high",
        "datePrecision": "documented_or_conflict_range",
        "description": "White-marble wall tablet listing 109 First World War names, relocated after the church fire.",
        "shortDescription": "White-marble wall tablet listing 109 First World War names, relocated after the church fire.",
        "fullDescription": "White-marble wall tablet listing 109 First World War names, relocated after the church fire.",
        "designerOrMaker": "Messrs McGlashen & Stewart, Edinburgh",
        "architectOrDesigner": "Messrs McGlashen & Stewart, Edinburgh",
        "registerIds": [],
        "sourceRecords": [
          {
            "sourceName": "Alva Parish Church war memorial plaque",
            "sourceOrganisation": "Imperial War Museums — War Memorials Register",
            "sourceRecordId": null,
            "sourceUrl": "https://www.iwm.org.uk/memorials/search?query=Alva%20Parish%20Church",
            "accessedAt": "2026-07-29",
            "licence": "Check register reuse terms.",
            "reliability": "official_non_statutory"
          }
        ],
        "scope": "within_alva",
        "status": "extant",
        "extantStatus": "extant",
        "licence": "See source records.",
        "tags": [
          "wall_plaque",
          "memorials and public art"
        ],
        "createdAt": "2026-07-29",
        "updatedAt": "2026-07-29",
        "reviewed": true,
        "coverageLevel": "memorial_public_art_inventory",
        "studyAreaSection": "Alva memorials, inscriptions and nearby public art",
        "liveRefreshRecommended": false,
        "heatmapScoring": {
          "ageFactor": 0.35,
          "significanceFactor": 0.45,
          "confidenceFactor": 1,
          "survivalFactor": 0.6,
          "provisionalWeight": 0.0945,
          "warning": "Interpretive app weight only; not an official heritage assessment."
        }
      }
    },
    {
      "type": "Feature",
      "id": "memorial-alva-johnstone-mausoleum",
      "geometry": {
        "type": "Point",
        "coordinates": [
          -3.792312,
          56.155578
        ]
      },
      "properties": {
        "id": "memorial-alva-johnstone-mausoleum",
        "projectId": "alva-scotland",
        "name": "Alva-Johnstone Mausoleum",
        "alternativeNames": [],
        "countryCode": "GB",
        "nation": "Scotland",
        "region": "Clackmannanshire",
        "locality": "Alva",
        "featureType": "mausoleum",
        "designationType": "Memorial, Public Art, Plaque or Inscription",
        "designationCategory": null,
        "statutoryStatus": "Separate commemorative and public-art inventory; statutory status varies",
        "locationType": "exact_or_representative_point",
        "locationConfidence": "high",
        "locationText": "Alva Churchyard",
        "documentedDateText": "1790",
        "earliestPossibleYear": 1790,
        "latestPossibleYear": 1790,
        "dateBasis": "documented_construction",
        "dateConfidence": "high",
        "datePrecision": "exact_year",
        "description": "Nationally important Graeco-Roman family mausoleum.",
        "shortDescription": "Nationally important Graeco-Roman family mausoleum.",
        "fullDescription": "Nationally important Graeco-Roman family mausoleum.",
        "designerOrMaker": "Robert and James Adam",
        "architectOrDesigner": "Robert and James Adam",
        "registerIds": [
          "HES LB21031"
        ],
        "sourceRecords": [
          {
            "sourceName": "Historic Environment Scotland designation LB21031",
            "sourceOrganisation": "Historic Environment Scotland",
            "sourceRecordId": "LB21031",
            "sourceUrl": "https://portal.historicenvironment.scot/designation/LB21031",
            "accessedAt": "2026-07-29",
            "licence": "Official designation record; HES spatial data is available under the Open Government Licence v3.0.",
            "reliability": "official_statutory"
          }
        ],
        "scope": "within_alva",
        "status": "extant",
        "extantStatus": "extant",
        "licence": "See source records.",
        "tags": [
          "mausoleum",
          "memorials and public art"
        ],
        "createdAt": "2026-07-29",
        "updatedAt": "2026-07-29",
        "reviewed": true,
        "coverageLevel": "memorial_public_art_inventory",
        "studyAreaSection": "Alva memorials, inscriptions and nearby public art",
        "liveRefreshRecommended": false,
        "heatmapScoring": {
          "ageFactor": 0.8,
          "significanceFactor": 0.45,
          "confidenceFactor": 1,
          "survivalFactor": 0.6,
          "provisionalWeight": 0.216,
          "warning": "Interpretive app weight only; not an official heritage assessment."
        }
      }
    },
    {
      "type": "Feature",
      "id": "grave-private-j-donaldson",
      "geometry": {
        "type": "Point",
        "coordinates": [
          -3.7913458,
          56.1548818
        ]
      },
      "properties": {
        "id": "grave-private-j-donaldson",
        "projectId": "alva-scotland",
        "name": "Private J. Donaldson family gravestone memorial",
        "alternativeNames": [],
        "countryCode": "GB",
        "nation": "Scotland",
        "region": "Clackmannanshire",
        "locality": "Alva",
        "featureType": "military_gravestone_inscription",
        "designationType": "Memorial, Public Art, Plaque or Inscription",
        "designationCategory": null,
        "statutoryStatus": "Separate commemorative and public-art inventory; statutory status varies",
        "locationType": "exact_or_representative_point",
        "locationConfidence": "medium",
        "locationText": "Alva Cemetery",
        "documentedDateText": "Died 28 April 1916",
        "earliestPossibleYear": 1916,
        "latestPossibleYear": 1916,
        "dateBasis": "documented_construction",
        "dateConfidence": "high",
        "datePrecision": "exact_year",
        "description": "Family gravestone carrying a military commemoration.",
        "shortDescription": "Family gravestone carrying a military commemoration.",
        "fullDescription": "Family gravestone carrying a military commemoration.",
        "designerOrMaker": null,
        "architectOrDesigner": null,
        "registerIds": [
          "IWM WMR 106169"
        ],
        "sourceRecords": [
          {
            "sourceName": "Private J. Donaldson family gravestone memorial",
            "sourceOrganisation": "Imperial War Museums — War Memorials Register",
            "sourceRecordId": "WMR 106169",
            "sourceUrl": "https://www.iwm.org.uk/memorials/item/memorial/106169",
            "accessedAt": "2026-07-29",
            "licence": "Link to the register; confirm reuse terms before reproducing images or long text.",
            "reliability": "official_non_statutory"
          }
        ],
        "scope": "within_alva",
        "status": "extant",
        "extantStatus": "extant",
        "licence": "See source records.",
        "tags": [
          "military_gravestone_inscription",
          "memorials and public art"
        ],
        "createdAt": "2026-07-29",
        "updatedAt": "2026-07-29",
        "reviewed": true,
        "coverageLevel": "memorial_public_art_inventory",
        "studyAreaSection": "Alva memorials, inscriptions and nearby public art",
        "liveRefreshRecommended": false,
        "heatmapScoring": {
          "ageFactor": 0.45,
          "significanceFactor": 0.45,
          "confidenceFactor": 1,
          "survivalFactor": 0.6,
          "provisionalWeight": 0.1215,
          "warning": "Interpretive app weight only; not an official heritage assessment."
        }
      }
    },
    {
      "type": "Feature",
      "id": "grave-second-lieutenant-rra-mcintosh",
      "geometry": {
        "type": "Point",
        "coordinates": [
          -3.7913458,
          56.1548818
        ]
      },
      "properties": {
        "id": "grave-second-lieutenant-rra-mcintosh",
        "projectId": "alva-scotland",
        "name": "Second Lieutenant R. R. A. McIntosh family gravestone memorial",
        "alternativeNames": [],
        "countryCode": "GB",
        "nation": "Scotland",
        "region": "Clackmannanshire",
        "locality": "Alva",
        "featureType": "military_gravestone_inscription",
        "designationType": "Memorial, Public Art, Plaque or Inscription",
        "designationCategory": null,
        "statutoryStatus": "Separate commemorative and public-art inventory; statutory status varies",
        "locationType": "exact_or_representative_point",
        "locationConfidence": "medium",
        "locationText": "Alva Cemetery",
        "documentedDateText": "Killed near Ypres on 23 April 1915",
        "earliestPossibleYear": 1915,
        "latestPossibleYear": 1915,
        "dateBasis": "documented_construction",
        "dateConfidence": "high",
        "datePrecision": "exact_year",
        "description": "Family gravestone carrying a military commemoration.",
        "shortDescription": "Family gravestone carrying a military commemoration.",
        "fullDescription": "Family gravestone carrying a military commemoration.",
        "designerOrMaker": null,
        "architectOrDesigner": null,
        "registerIds": [
          "IWM WMR 106167"
        ],
        "sourceRecords": [
          {
            "sourceName": "Second Lieutenant R. R. A. McIntosh family gravestone memorial",
            "sourceOrganisation": "Imperial War Museums — War Memorials Register",
            "sourceRecordId": "WMR 106167",
            "sourceUrl": "https://www.iwm.org.uk/memorials/item/memorial/106167",
            "accessedAt": "2026-07-29",
            "licence": "Link to the register; confirm reuse terms before reproducing images or long text.",
            "reliability": "official_non_statutory"
          }
        ],
        "scope": "within_alva",
        "status": "extant",
        "extantStatus": "extant",
        "licence": "See source records.",
        "tags": [
          "military_gravestone_inscription",
          "memorials and public art"
        ],
        "createdAt": "2026-07-29",
        "updatedAt": "2026-07-29",
        "reviewed": true,
        "coverageLevel": "memorial_public_art_inventory",
        "studyAreaSection": "Alva memorials, inscriptions and nearby public art",
        "liveRefreshRecommended": false,
        "heatmapScoring": {
          "ageFactor": 0.45,
          "significanceFactor": 0.45,
          "confidenceFactor": 1,
          "survivalFactor": 0.6,
          "provisionalWeight": 0.1215,
          "warning": "Interpretive app weight only; not an official heritage assessment."
        }
      }
    },
    {
      "type": "Feature",
      "id": "grave-sapper-alexander-allan",
      "geometry": {
        "type": "Point",
        "coordinates": [
          -3.7913458,
          56.1548818
        ]
      },
      "properties": {
        "id": "grave-sapper-alexander-allan",
        "projectId": "alva-scotland",
        "name": "Sapper Alexander Allan family gravestone memorial",
        "alternativeNames": [],
        "countryCode": "GB",
        "nation": "Scotland",
        "region": "Clackmannanshire",
        "locality": "Alva",
        "featureType": "military_gravestone_inscription",
        "designationType": "Memorial, Public Art, Plaque or Inscription",
        "designationCategory": null,
        "statutoryStatus": "Separate commemorative and public-art inventory; statutory status varies",
        "locationType": "exact_or_representative_point",
        "locationConfidence": "medium",
        "locationText": "Alva Cemetery",
        "documentedDateText": "Died of wounds at Arras on 25 March 1918",
        "earliestPossibleYear": 1918,
        "latestPossibleYear": 1918,
        "dateBasis": "documented_construction",
        "dateConfidence": "high",
        "datePrecision": "exact_year",
        "description": "Family gravestone carrying a military commemoration.",
        "shortDescription": "Family gravestone carrying a military commemoration.",
        "fullDescription": "Family gravestone carrying a military commemoration.",
        "designerOrMaker": null,
        "architectOrDesigner": null,
        "registerIds": [
          "IWM WMR 107426"
        ],
        "sourceRecords": [
          {
            "sourceName": "Sapper Alexander Allan family gravestone memorial",
            "sourceOrganisation": "Imperial War Museums — War Memorials Register",
            "sourceRecordId": "WMR 107426",
            "sourceUrl": "https://www.iwm.org.uk/memorials/item/memorial/107426",
            "accessedAt": "2026-07-29",
            "licence": "Link to the register; confirm reuse terms before reproducing images or long text.",
            "reliability": "official_non_statutory"
          }
        ],
        "scope": "within_alva",
        "status": "extant",
        "extantStatus": "extant",
        "licence": "See source records.",
        "tags": [
          "military_gravestone_inscription",
          "memorials and public art"
        ],
        "createdAt": "2026-07-29",
        "updatedAt": "2026-07-29",
        "reviewed": true,
        "coverageLevel": "memorial_public_art_inventory",
        "studyAreaSection": "Alva memorials, inscriptions and nearby public art",
        "liveRefreshRecommended": false,
        "heatmapScoring": {
          "ageFactor": 0.45,
          "significanceFactor": 0.45,
          "confidenceFactor": 1,
          "survivalFactor": 0.6,
          "provisionalWeight": 0.1215,
          "warning": "Interpretive app weight only; not an official heritage assessment."
        }
      }
    },
    {
      "type": "Feature",
      "id": "grave-george-and-james-fox",
      "geometry": {
        "type": "Point",
        "coordinates": [
          -3.7913458,
          56.1548818
        ]
      },
      "properties": {
        "id": "grave-george-and-james-fox",
        "projectId": "alva-scotland",
        "name": "Private George Fox and Sergeant Major James Fox family gravestone memorial",
        "alternativeNames": [],
        "countryCode": "GB",
        "nation": "Scotland",
        "region": "Clackmannanshire",
        "locality": "Alva",
        "featureType": "military_gravestone_inscription",
        "designationType": "Memorial, Public Art, Plaque or Inscription",
        "designationCategory": null,
        "statutoryStatus": "Separate commemorative and public-art inventory; statutory status varies",
        "locationType": "exact_or_representative_point",
        "locationConfidence": "medium",
        "locationText": "Alva Cemetery",
        "documentedDateText": "George Fox killed 24 May 1915; James Fox killed 25 September 1915",
        "earliestPossibleYear": 1915,
        "latestPossibleYear": 1915,
        "dateBasis": "documented_construction",
        "dateConfidence": "high",
        "datePrecision": "exact_year",
        "description": "Family gravestone carrying a military commemoration.",
        "shortDescription": "Family gravestone carrying a military commemoration.",
        "fullDescription": "Family gravestone carrying a military commemoration.",
        "designerOrMaker": null,
        "architectOrDesigner": null,
        "registerIds": [
          "IWM WMR 107424"
        ],
        "sourceRecords": [
          {
            "sourceName": "Private George Fox and Sergeant Major James Fox family gravestone memorial",
            "sourceOrganisation": "Imperial War Museums — War Memorials Register",
            "sourceRecordId": "WMR 107424",
            "sourceUrl": "https://www.iwm.org.uk/memorials/item/memorial/107424",
            "accessedAt": "2026-07-29",
            "licence": "Link to the register; confirm reuse terms before reproducing images or long text.",
            "reliability": "official_non_statutory"
          }
        ],
        "scope": "within_alva",
        "status": "extant",
        "extantStatus": "extant",
        "licence": "See source records.",
        "tags": [
          "military_gravestone_inscription",
          "memorials and public art"
        ],
        "createdAt": "2026-07-29",
        "updatedAt": "2026-07-29",
        "reviewed": true,
        "coverageLevel": "memorial_public_art_inventory",
        "studyAreaSection": "Alva memorials, inscriptions and nearby public art",
        "liveRefreshRecommended": false,
        "heatmapScoring": {
          "ageFactor": 0.45,
          "significanceFactor": 0.45,
          "confidenceFactor": 1,
          "survivalFactor": 0.6,
          "provisionalWeight": 0.1215,
          "warning": "Interpretive app weight only; not an official heritage assessment."
        }
      }
    },
    {
      "type": "Feature",
      "id": "grave-private-gr-purdon",
      "geometry": {
        "type": "Point",
        "coordinates": [
          -3.7913458,
          56.1548818
        ]
      },
      "properties": {
        "id": "grave-private-gr-purdon",
        "projectId": "alva-scotland",
        "name": "Private G. R. Purdon family gravestone memorial",
        "alternativeNames": [],
        "countryCode": "GB",
        "nation": "Scotland",
        "region": "Clackmannanshire",
        "locality": "Alva",
        "featureType": "military_gravestone_inscription",
        "designationType": "Memorial, Public Art, Plaque or Inscription",
        "designationCategory": null,
        "statutoryStatus": "Separate commemorative and public-art inventory; statutory status varies",
        "locationType": "exact_or_representative_point",
        "locationConfidence": "medium",
        "locationText": "Alva Cemetery",
        "documentedDateText": "Commemoration records 8 October 1918",
        "earliestPossibleYear": 1918,
        "latestPossibleYear": 1918,
        "dateBasis": "documented_construction",
        "dateConfidence": "medium",
        "datePrecision": "exact_year",
        "description": "Family gravestone carrying a military commemoration.",
        "shortDescription": "Family gravestone carrying a military commemoration.",
        "fullDescription": "Family gravestone carrying a military commemoration.",
        "designerOrMaker": null,
        "architectOrDesigner": null,
        "registerIds": [
          "IWM WMR 107437"
        ],
        "sourceRecords": [
          {
            "sourceName": "Private G. R. Purdon family gravestone memorial",
            "sourceOrganisation": "Imperial War Museums — War Memorials Register",
            "sourceRecordId": "WMR 107437",
            "sourceUrl": "https://www.iwm.org.uk/memorials/item/memorial/107437",
            "accessedAt": "2026-07-29",
            "licence": "Link to the register; confirm reuse terms before reproducing images or long text.",
            "reliability": "official_non_statutory"
          }
        ],
        "scope": "within_alva",
        "status": "extant",
        "extantStatus": "extant",
        "licence": "See source records.",
        "tags": [
          "military_gravestone_inscription",
          "memorials and public art"
        ],
        "createdAt": "2026-07-29",
        "updatedAt": "2026-07-29",
        "reviewed": true,
        "coverageLevel": "memorial_public_art_inventory",
        "studyAreaSection": "Alva memorials, inscriptions and nearby public art",
        "liveRefreshRecommended": false,
        "heatmapScoring": {
          "ageFactor": 0.45,
          "significanceFactor": 0.45,
          "confidenceFactor": 0.75,
          "survivalFactor": 0.6,
          "provisionalWeight": 0.0911,
          "warning": "Interpretive app weight only; not an official heritage assessment."
        }
      }
    },
    {
      "type": "Feature",
      "id": "grave-sergeant-j-eadie",
      "geometry": {
        "type": "Point",
        "coordinates": [
          -3.7913458,
          56.1548818
        ]
      },
      "properties": {
        "id": "grave-sergeant-j-eadie",
        "projectId": "alva-scotland",
        "name": "Sergeant J. Eadie family gravestone memorial",
        "alternativeNames": [],
        "countryCode": "GB",
        "nation": "Scotland",
        "region": "Clackmannanshire",
        "locality": "Alva",
        "featureType": "military_gravestone_inscription",
        "designationType": "Memorial, Public Art, Plaque or Inscription",
        "designationCategory": null,
        "statutoryStatus": "Separate commemorative and public-art inventory; statutory status varies",
        "locationType": "exact_or_representative_point",
        "locationConfidence": "medium",
        "locationText": "Alva Cemetery",
        "documentedDateText": "First World War commemoration, 1914–1918; exact death date not established in the source reviewed",
        "earliestPossibleYear": 1914,
        "latestPossibleYear": 1918,
        "dateBasis": "documented_date_range",
        "dateConfidence": "low",
        "datePrecision": "documented_or_conflict_range",
        "description": "Family gravestone carrying a military commemoration.",
        "shortDescription": "Family gravestone carrying a military commemoration.",
        "fullDescription": "Family gravestone carrying a military commemoration.",
        "designerOrMaker": null,
        "architectOrDesigner": null,
        "registerIds": [
          "IWM WMR 106170"
        ],
        "sourceRecords": [
          {
            "sourceName": "Sergeant J. Eadie family gravestone memorial",
            "sourceOrganisation": "Imperial War Museums — War Memorials Register",
            "sourceRecordId": "WMR 106170",
            "sourceUrl": "https://www.iwm.org.uk/memorials/item/memorial/106170",
            "accessedAt": "2026-07-29",
            "licence": "Link to the register; confirm reuse terms before reproducing images or long text.",
            "reliability": "official_non_statutory"
          }
        ],
        "scope": "within_alva",
        "status": "extant",
        "extantStatus": "extant",
        "licence": "See source records.",
        "tags": [
          "military_gravestone_inscription",
          "memorials and public art"
        ],
        "createdAt": "2026-07-29",
        "updatedAt": "2026-07-29",
        "reviewed": true,
        "coverageLevel": "memorial_public_art_inventory",
        "studyAreaSection": "Alva memorials, inscriptions and nearby public art",
        "liveRefreshRecommended": false,
        "heatmapScoring": {
          "ageFactor": 0.45,
          "significanceFactor": 0.45,
          "confidenceFactor": 0.5,
          "survivalFactor": 0.6,
          "provisionalWeight": 0.0607,
          "warning": "Interpretive app weight only; not an official heritage assessment."
        }
      }
    },
    {
      "type": "Feature",
      "id": "grave-flight-cadet-am-rennie",
      "geometry": {
        "type": "Point",
        "coordinates": [
          -3.7913458,
          56.1548818
        ]
      },
      "properties": {
        "id": "grave-flight-cadet-am-rennie",
        "projectId": "alva-scotland",
        "name": "Flight Cadet A. M. Rennie family gravestone memorial",
        "alternativeNames": [],
        "countryCode": "GB",
        "nation": "Scotland",
        "region": "Clackmannanshire",
        "locality": "Alva",
        "featureType": "military_gravestone_inscription",
        "designationType": "Memorial, Public Art, Plaque or Inscription",
        "designationCategory": null,
        "statutoryStatus": "Separate commemorative and public-art inventory; statutory status varies",
        "locationType": "exact_or_representative_point",
        "locationConfidence": "medium",
        "locationText": "Alva Cemetery",
        "documentedDateText": "First World War commemoration, 1914–1918; exact death date not established in the source reviewed",
        "earliestPossibleYear": 1914,
        "latestPossibleYear": 1918,
        "dateBasis": "documented_date_range",
        "dateConfidence": "low",
        "datePrecision": "documented_or_conflict_range",
        "description": "Family gravestone carrying a military commemoration.",
        "shortDescription": "Family gravestone carrying a military commemoration.",
        "fullDescription": "Family gravestone carrying a military commemoration.",
        "designerOrMaker": null,
        "architectOrDesigner": null,
        "registerIds": [
          "IWM WMR 106166"
        ],
        "sourceRecords": [
          {
            "sourceName": "Flight Cadet A. M. Rennie family gravestone memorial",
            "sourceOrganisation": "Imperial War Museums — War Memorials Register",
            "sourceRecordId": "WMR 106166",
            "sourceUrl": "https://www.iwm.org.uk/memorials/item/memorial/106166",
            "accessedAt": "2026-07-29",
            "licence": "Link to the register; confirm reuse terms before reproducing images or long text.",
            "reliability": "official_non_statutory"
          }
        ],
        "scope": "within_alva",
        "status": "extant",
        "extantStatus": "extant",
        "licence": "See source records.",
        "tags": [
          "military_gravestone_inscription",
          "memorials and public art"
        ],
        "createdAt": "2026-07-29",
        "updatedAt": "2026-07-29",
        "reviewed": true,
        "coverageLevel": "memorial_public_art_inventory",
        "studyAreaSection": "Alva memorials, inscriptions and nearby public art",
        "liveRefreshRecommended": false,
        "heatmapScoring": {
          "ageFactor": 0.45,
          "significanceFactor": 0.45,
          "confidenceFactor": 0.5,
          "survivalFactor": 0.6,
          "provisionalWeight": 0.0607,
          "warning": "Interpretive app weight only; not an official heritage assessment."
        }
      }
    },
    {
      "type": "Feature",
      "id": "grave-sergeant-w-weir",
      "geometry": {
        "type": "Point",
        "coordinates": [
          -3.7913458,
          56.1548818
        ]
      },
      "properties": {
        "id": "grave-sergeant-w-weir",
        "projectId": "alva-scotland",
        "name": "Sergeant W. Weir family gravestone memorial",
        "alternativeNames": [],
        "countryCode": "GB",
        "nation": "Scotland",
        "region": "Clackmannanshire",
        "locality": "Alva",
        "featureType": "military_gravestone_inscription",
        "designationType": "Memorial, Public Art, Plaque or Inscription",
        "designationCategory": null,
        "statutoryStatus": "Separate commemorative and public-art inventory; statutory status varies",
        "locationType": "exact_or_representative_point",
        "locationConfidence": "medium",
        "locationText": "Alva Cemetery",
        "documentedDateText": "First World War commemoration, 1914–1918; exact death date not established in the source reviewed",
        "earliestPossibleYear": 1914,
        "latestPossibleYear": 1918,
        "dateBasis": "documented_date_range",
        "dateConfidence": "low",
        "datePrecision": "documented_or_conflict_range",
        "description": "Family gravestone carrying a military commemoration.",
        "shortDescription": "Family gravestone carrying a military commemoration.",
        "fullDescription": "Family gravestone carrying a military commemoration.",
        "designerOrMaker": null,
        "architectOrDesigner": null,
        "registerIds": [
          "IWM WMR 107429"
        ],
        "sourceRecords": [
          {
            "sourceName": "Sergeant W. Weir family gravestone memorial",
            "sourceOrganisation": "Imperial War Museums — War Memorials Register",
            "sourceRecordId": "WMR 107429",
            "sourceUrl": "https://www.iwm.org.uk/memorials/item/memorial/107429",
            "accessedAt": "2026-07-29",
            "licence": "Link to the register; confirm reuse terms before reproducing images or long text.",
            "reliability": "official_non_statutory"
          }
        ],
        "scope": "within_alva",
        "status": "extant",
        "extantStatus": "extant",
        "licence": "See source records.",
        "tags": [
          "military_gravestone_inscription",
          "memorials and public art"
        ],
        "createdAt": "2026-07-29",
        "updatedAt": "2026-07-29",
        "reviewed": true,
        "coverageLevel": "memorial_public_art_inventory",
        "studyAreaSection": "Alva memorials, inscriptions and nearby public art",
        "liveRefreshRecommended": false,
        "heatmapScoring": {
          "ageFactor": 0.45,
          "significanceFactor": 0.45,
          "confidenceFactor": 0.5,
          "survivalFactor": 0.6,
          "provisionalWeight": 0.0607,
          "warning": "Interpretive app weight only; not an official heritage assessment."
        }
      }
    },
    {
      "type": "Feature",
      "id": "grave-w-robinson",
      "geometry": {
        "type": "Point",
        "coordinates": [
          -3.7913458,
          56.1548818
        ]
      },
      "properties": {
        "id": "grave-w-robinson",
        "projectId": "alva-scotland",
        "name": "W. Robinson family gravestone memorial",
        "alternativeNames": [],
        "countryCode": "GB",
        "nation": "Scotland",
        "region": "Clackmannanshire",
        "locality": "Alva",
        "featureType": "military_gravestone_inscription",
        "designationType": "Memorial, Public Art, Plaque or Inscription",
        "designationCategory": null,
        "statutoryStatus": "Separate commemorative and public-art inventory; statutory status varies",
        "locationType": "exact_or_representative_point",
        "locationConfidence": "medium",
        "locationText": "Alva Cemetery",
        "documentedDateText": "First World War commemoration, 1914–1918; exact death date not established in the source reviewed",
        "earliestPossibleYear": 1914,
        "latestPossibleYear": 1918,
        "dateBasis": "documented_date_range",
        "dateConfidence": "low",
        "datePrecision": "documented_or_conflict_range",
        "description": "Family gravestone carrying a military commemoration.",
        "shortDescription": "Family gravestone carrying a military commemoration.",
        "fullDescription": "Family gravestone carrying a military commemoration.",
        "designerOrMaker": null,
        "architectOrDesigner": null,
        "registerIds": [
          "IWM WMR 107440"
        ],
        "sourceRecords": [
          {
            "sourceName": "W. Robinson family gravestone memorial",
            "sourceOrganisation": "Imperial War Museums — War Memorials Register",
            "sourceRecordId": "WMR 107440",
            "sourceUrl": "https://www.iwm.org.uk/memorials/item/memorial/107440",
            "accessedAt": "2026-07-29",
            "licence": "Link to the register; confirm reuse terms before reproducing images or long text.",
            "reliability": "official_non_statutory"
          }
        ],
        "scope": "within_alva",
        "status": "extant",
        "extantStatus": "extant",
        "licence": "See source records.",
        "tags": [
          "military_gravestone_inscription",
          "memorials and public art"
        ],
        "createdAt": "2026-07-29",
        "updatedAt": "2026-07-29",
        "reviewed": true,
        "coverageLevel": "memorial_public_art_inventory",
        "studyAreaSection": "Alva memorials, inscriptions and nearby public art",
        "liveRefreshRecommended": false,
        "heatmapScoring": {
          "ageFactor": 0.45,
          "significanceFactor": 0.45,
          "confidenceFactor": 0.5,
          "survivalFactor": 0.6,
          "provisionalWeight": 0.0607,
          "warning": "Interpretive app weight only; not an official heritage assessment."
        }
      }
    }
  ]
}