{
  "type": "FeatureCollection",
  "name": "Alva Full Heritage Points",
  "crs": {
    "type": "name",
    "properties": {
      "name": "urn:ogc:def:crs:OGC:1.3:CRS84"
    }
  },
  "metadata": {
    "createdAt": "2026-07-29",
    "projectId": "alva-scotland",
    "featureCount": 15,
    "warning": "Refresh statutory geometry and status from HES.",
    "attribution": "Contains Historic Environment Scotland and OS data © Historic Environment Scotland and Crown Copyright and database right 2026, licensed under the Open Government Licence v3.0."
  },
  "features": [
    {
      "type": "Feature",
      "id": "hes-lb21033",
      "geometry": {
        "type": "Point",
        "coordinates": [
          -3.809172,
          56.153211
        ]
      },
      "properties": {
        "id": "hes-lb21033",
        "projectId": "alva-scotland",
        "name": "Cochrane Park Hall and Gates, West Stirling Street",
        "alternativeNames": [],
        "countryCode": "GB",
        "nation": "Scotland",
        "region": "Clackmannanshire",
        "locality": "Alva",
        "featureType": "listed_building",
        "designationType": "Listed Building",
        "designationCategory": "C",
        "statutoryStatus": "Designated — refresh live before publication",
        "designationReference": "LB21033",
        "locationType": "designation_point",
        "locationConfidence": "high",
        "documentedDateText": "1929",
        "earliestPossibleYear": 1929,
        "latestPossibleYear": 1929,
        "dateBasis": "documented_construction",
        "dateConfidence": "high",
        "datePrecision": "exact_year",
        "shortDescription": "Tall H-plan public hall with cupola, loggia features and gates.",
        "fullDescription": "Tall H-plan public hall with cupola, loggia features and gates.",
        "architectOrDesigner": "William Kerr of John Melvin & Son",
        "extantStatus": "extant",
        "sourceRecords": [
          {
            "sourceName": "Historic Environment Scotland designation LB21033",
            "sourceOrganisation": "Historic Environment Scotland",
            "sourceRecordId": "LB21033",
            "sourceUrl": "https://portal.historicenvironment.scot/designation/LB21033",
            "accessedAt": "2026-07-29",
            "licence": "Official designation record; HES spatial data is available under the Open Government Licence v3.0.",
            "reliability": "official_statutory"
          }
        ],
        "licence": "See source records.",
        "tags": [
          "listed building",
          "category C",
          "Alva town and historic core"
        ],
        "createdAt": "2026-07-29",
        "updatedAt": "2026-07-29",
        "reviewed": true,
        "coverageLevel": "detailed",
        "studyAreaSection": "Alva town and historic core",
        "officialRecordUrl": "https://portal.historicenvironment.scot/designation/LB21033",
        "liveRefreshRecommended": true,
        "geometrySource": {
          "type": "Official designation point / HES coordinate",
          "confidence": "high",
          "refreshLayer": "HES Listed Buildings"
        },
        "heatmapScoring": {
          "ageFactor": 0.35,
          "significanceFactor": 0.5,
          "confidenceFactor": 1,
          "survivalFactor": 0.6,
          "provisionalWeight": 0.105,
          "warning": "Interpretive app weight only; not an official heritage assessment."
        }
      }
    },
    {
      "type": "Feature",
      "id": "hes-lb49221",
      "geometry": {
        "type": "Point",
        "coordinates": [
          -3.79903,
          56.155992
        ]
      },
      "properties": {
        "id": "hes-lb49221",
        "projectId": "alva-scotland",
        "name": "Island House, 16 Brook Street",
        "alternativeNames": [],
        "countryCode": "GB",
        "nation": "Scotland",
        "region": "Clackmannanshire",
        "locality": "Alva",
        "featureType": "listed_building",
        "designationType": "Listed Building",
        "designationCategory": "C",
        "statutoryStatus": "Designated — refresh live before publication",
        "designationReference": "LB49221",
        "locationType": "designation_point",
        "locationConfidence": "high",
        "documentedDateText": "Possibly circa 1767, but physical evidence suggests approximately 1800",
        "earliestPossibleYear": 1767,
        "latestPossibleYear": 1805,
        "dateBasis": "estimated_from_authoritative_source",
        "dateConfidence": "medium",
        "datePrecision": "documented_or_estimated_range",
        "shortDescription": "Plain classical house traditionally associated with Alva’s late-18th-century development.",
        "fullDescription": "Plain classical house traditionally associated with Alva’s late-18th-century development.",
        "architectOrDesigner": null,
        "extantStatus": "extant",
        "sourceRecords": [
          {
            "sourceName": "Historic Environment Scotland designation LB49221",
            "sourceOrganisation": "Historic Environment Scotland",
            "sourceRecordId": "LB49221",
            "sourceUrl": "https://portal.historicenvironment.scot/designation/LB49221",
            "accessedAt": "2026-07-29",
            "licence": "Official designation record; HES spatial data is available under the Open Government Licence v3.0.",
            "reliability": "official_statutory"
          }
        ],
        "licence": "See source records.",
        "tags": [
          "listed building",
          "category C",
          "Alva town and historic core"
        ],
        "createdAt": "2026-07-29",
        "updatedAt": "2026-07-29",
        "reviewed": true,
        "coverageLevel": "detailed",
        "studyAreaSection": "Alva town and historic core",
        "officialRecordUrl": "https://portal.historicenvironment.scot/designation/LB49221",
        "liveRefreshRecommended": true,
        "geometrySource": {
          "type": "Official designation point / HES coordinate",
          "confidence": "high",
          "refreshLayer": "HES Listed Buildings"
        },
        "heatmapScoring": {
          "ageFactor": 0.8,
          "significanceFactor": 0.5,
          "confidenceFactor": 0.75,
          "survivalFactor": 0.6,
          "provisionalWeight": 0.18,
          "warning": "Interpretive app weight only; not an official heritage assessment."
        }
      }
    },
    {
      "type": "Feature",
      "id": "hes-lb2027",
      "geometry": {
        "type": "Point",
        "coordinates": [
          -3.837168,
          56.152493
        ]
      },
      "properties": {
        "id": "hes-lb2027",
        "projectId": "alva-scotland",
        "name": "Dams Farmhouse",
        "alternativeNames": [],
        "countryCode": "GB",
        "nation": "Scotland",
        "region": "Clackmannanshire",
        "locality": "Alva",
        "featureType": "listed_building",
        "designationType": "Listed Building",
        "designationCategory": "B",
        "statutoryStatus": "Designated — refresh live before publication",
        "designationReference": "LB2027",
        "locationType": "designation_point",
        "locationConfidence": "high",
        "documentedDateText": "Mid-18th century",
        "earliestPossibleYear": 1725,
        "latestPossibleYear": 1775,
        "dateBasis": "estimated_from_authoritative_source",
        "dateConfidence": "high",
        "datePrecision": "documented_or_estimated_range",
        "shortDescription": "Traditional farmhouse west of Alva.",
        "fullDescription": "Traditional farmhouse west of Alva.",
        "architectOrDesigner": null,
        "extantStatus": "extant",
        "sourceRecords": [
          {
            "sourceName": "Historic Environment Scotland designation LB2027",
            "sourceOrganisation": "Historic Environment Scotland",
            "sourceRecordId": "LB2027",
            "sourceUrl": "https://portal.historicenvironment.scot/designation/LB2027",
            "accessedAt": "2026-07-29",
            "licence": "Official designation record; HES spatial data is available under the Open Government Licence v3.0.",
            "reliability": "official_statutory"
          }
        ],
        "licence": "See source records.",
        "tags": [
          "listed building",
          "category B",
          "Western Alva and Balquharn"
        ],
        "createdAt": "2026-07-29",
        "updatedAt": "2026-07-29",
        "reviewed": true,
        "coverageLevel": "detailed",
        "studyAreaSection": "Western Alva and Balquharn",
        "officialRecordUrl": "https://portal.historicenvironment.scot/designation/LB2027",
        "liveRefreshRecommended": true,
        "geometrySource": {
          "type": "Official designation point / HES coordinate",
          "confidence": "high",
          "refreshLayer": "HES Listed Buildings"
        },
        "heatmapScoring": {
          "ageFactor": 0.8,
          "significanceFactor": 0.75,
          "confidenceFactor": 1,
          "survivalFactor": 0.6,
          "provisionalWeight": 0.36,
          "warning": "Interpretive app weight only; not an official heritage assessment."
        }
      }
    },
    {
      "type": "Feature",
      "id": "hes-lb21035",
      "geometry": {
        "type": "Point",
        "coordinates": [
          -3.798678,
          56.153302
        ]
      },
      "properties": {
        "id": "hes-lb21035",
        "projectId": "alva-scotland",
        "name": "Johnstone Arms Hotel, 48 Stirling Street",
        "alternativeNames": [],
        "countryCode": "GB",
        "nation": "Scotland",
        "region": "Clackmannanshire",
        "locality": "Alva",
        "featureType": "listed_building",
        "designationType": "Listed Building",
        "designationCategory": "B",
        "statutoryStatus": "Designated — refresh live before publication",
        "designationReference": "LB21035",
        "locationType": "designation_point",
        "locationConfidence": "high",
        "documentedDateText": "18th century; remodelled circa 1840 with later rear additions",
        "earliestPossibleYear": 1700,
        "latestPossibleYear": 1845,
        "dateBasis": "documented_date_range",
        "dateConfidence": "high",
        "datePrecision": "documented_or_estimated_range",
        "shortDescription": "Long-established historic inn and hotel on Stirling Street.",
        "fullDescription": "Long-established historic inn and hotel on Stirling Street.",
        "architectOrDesigner": null,
        "extantStatus": "extant",
        "sourceRecords": [
          {
            "sourceName": "Historic Environment Scotland designation LB21035",
            "sourceOrganisation": "Historic Environment Scotland",
            "sourceRecordId": "LB21035",
            "sourceUrl": "https://portal.historicenvironment.scot/designation/LB21035",
            "accessedAt": "2026-07-29",
            "licence": "Official designation record; HES spatial data is available under the Open Government Licence v3.0.",
            "reliability": "official_statutory"
          }
        ],
        "licence": "See source records.",
        "tags": [
          "listed building",
          "category B",
          "Alva town and historic core"
        ],
        "createdAt": "2026-07-29",
        "updatedAt": "2026-07-29",
        "reviewed": true,
        "coverageLevel": "detailed",
        "studyAreaSection": "Alva town and historic core",
        "officialRecordUrl": "https://portal.historicenvironment.scot/designation/LB21035",
        "liveRefreshRecommended": true,
        "geometrySource": {
          "type": "Official designation point / HES coordinate",
          "confidence": "high",
          "refreshLayer": "HES Listed Buildings"
        },
        "heatmapScoring": {
          "ageFactor": 0.8,
          "significanceFactor": 0.75,
          "confidenceFactor": 1,
          "survivalFactor": 0.6,
          "provisionalWeight": 0.36,
          "warning": "Interpretive app weight only; not an official heritage assessment."
        }
      }
    },
    {
      "type": "Feature",
      "id": "hes-lb1993",
      "geometry": {
        "type": "Point",
        "coordinates": [
          -3.824609,
          56.154844
        ]
      },
      "properties": {
        "id": "hes-lb1993",
        "projectId": "alva-scotland",
        "name": "Balquharn Bridge over Balquharn Burn",
        "alternativeNames": [],
        "countryCode": "GB",
        "nation": "Scotland",
        "region": "Clackmannanshire",
        "locality": "Alva",
        "featureType": "listed_building",
        "designationType": "Listed Building",
        "designationCategory": "C",
        "statutoryStatus": "Designated — refresh live before publication",
        "designationReference": "LB1993",
        "locationType": "designation_point",
        "locationConfidence": "high",
        "documentedDateText": "18th century",
        "earliestPossibleYear": 1700,
        "latestPossibleYear": 1799,
        "dateBasis": "documented_date_range",
        "dateConfidence": "high",
        "datePrecision": "documented_or_estimated_range",
        "shortDescription": "Stone bridge in the historic western approach landscape.",
        "fullDescription": "Stone bridge in the historic western approach landscape.",
        "architectOrDesigner": null,
        "extantStatus": "extant",
        "sourceRecords": [
          {
            "sourceName": "Historic Environment Scotland designation LB1993",
            "sourceOrganisation": "Historic Environment Scotland",
            "sourceRecordId": "LB1993",
            "sourceUrl": "https://portal.historicenvironment.scot/designation/LB1993",
            "accessedAt": "2026-07-29",
            "licence": "Official designation record; HES spatial data is available under the Open Government Licence v3.0.",
            "reliability": "official_statutory"
          }
        ],
        "licence": "See source records.",
        "tags": [
          "listed building",
          "category C",
          "Western Alva and Balquharn"
        ],
        "createdAt": "2026-07-29",
        "updatedAt": "2026-07-29",
        "reviewed": true,
        "coverageLevel": "detailed",
        "studyAreaSection": "Western Alva and Balquharn",
        "officialRecordUrl": "https://portal.historicenvironment.scot/designation/LB1993",
        "liveRefreshRecommended": true,
        "geometrySource": {
          "type": "Official designation point / HES coordinate",
          "confidence": "high",
          "refreshLayer": "HES Listed Buildings"
        },
        "heatmapScoring": {
          "ageFactor": 0.8,
          "significanceFactor": 0.5,
          "confidenceFactor": 1,
          "survivalFactor": 0.6,
          "provisionalWeight": 0.24,
          "warning": "Interpretive app weight only; not an official heritage assessment."
        }
      }
    },
    {
      "type": "Feature",
      "id": "hes-lb21034",
      "geometry": {
        "type": "Point",
        "coordinates": [
          -3.798003,
          56.151945
        ]
      },
      "properties": {
        "id": "hes-lb21034",
        "projectId": "alva-scotland",
        "name": "Former Handloom Weaving Factory, Brook Street and Henry Street",
        "alternativeNames": [],
        "countryCode": "GB",
        "nation": "Scotland",
        "region": "Clackmannanshire",
        "locality": "Alva",
        "featureType": "listed_building",
        "designationType": "Listed Building",
        "designationCategory": "B",
        "statutoryStatus": "Designated — refresh live before publication",
        "designationReference": "LB21034",
        "locationType": "designation_point",
        "locationConfidence": "high",
        "documentedDateText": "Early to mid-19th century",
        "earliestPossibleYear": 1800,
        "latestPossibleYear": 1850,
        "dateBasis": "documented_date_range",
        "dateConfidence": "high",
        "datePrecision": "documented_or_estimated_range",
        "shortDescription": "Rare purpose-built handloom weaving factory associated with textile Alva.",
        "fullDescription": "Rare purpose-built handloom weaving factory associated with textile Alva.",
        "architectOrDesigner": null,
        "extantStatus": "extant",
        "sourceRecords": [
          {
            "sourceName": "Historic Environment Scotland designation LB21034",
            "sourceOrganisation": "Historic Environment Scotland",
            "sourceRecordId": "LB21034",
            "sourceUrl": "https://portal.historicenvironment.scot/designation/LB21034",
            "accessedAt": "2026-07-29",
            "licence": "Official designation record; HES spatial data is available under the Open Government Licence v3.0.",
            "reliability": "official_statutory"
          }
        ],
        "licence": "See source records.",
        "tags": [
          "listed building",
          "category B",
          "Alva town and historic core"
        ],
        "createdAt": "2026-07-29",
        "updatedAt": "2026-07-29",
        "reviewed": true,
        "coverageLevel": "detailed",
        "studyAreaSection": "Alva town and historic core",
        "officialRecordUrl": "https://portal.historicenvironment.scot/designation/LB21034",
        "liveRefreshRecommended": true,
        "geometrySource": {
          "type": "Official designation point / HES coordinate",
          "confidence": "high",
          "refreshLayer": "HES Listed Buildings"
        },
        "heatmapScoring": {
          "ageFactor": 0.7,
          "significanceFactor": 0.75,
          "confidenceFactor": 1,
          "survivalFactor": 0.6,
          "provisionalWeight": 0.315,
          "warning": "Interpretive app weight only; not an official heritage assessment."
        }
      }
    },
    {
      "type": "Feature",
      "id": "hes-lb1994",
      "geometry": {
        "type": "Point",
        "coordinates": [
          -3.824923,
          56.154336
        ]
      },
      "properties": {
        "id": "hes-lb1994",
        "projectId": "alva-scotland",
        "name": "Keverkae Bridge over Balquharn Burn",
        "alternativeNames": [],
        "countryCode": "GB",
        "nation": "Scotland",
        "region": "Clackmannanshire",
        "locality": "Alva",
        "featureType": "listed_building",
        "designationType": "Listed Building",
        "designationCategory": "C",
        "statutoryStatus": "Designated — refresh live before publication",
        "designationReference": "LB1994",
        "locationType": "designation_point",
        "locationConfidence": "high",
        "documentedDateText": "18th century",
        "earliestPossibleYear": 1700,
        "latestPossibleYear": 1799,
        "dateBasis": "documented_date_range",
        "dateConfidence": "high",
        "datePrecision": "documented_or_estimated_range",
        "shortDescription": "Historic bridge over Balquharn Burn.",
        "fullDescription": "Historic bridge over Balquharn Burn.",
        "architectOrDesigner": null,
        "extantStatus": "extant",
        "sourceRecords": [
          {
            "sourceName": "Historic Environment Scotland designation LB1994",
            "sourceOrganisation": "Historic Environment Scotland",
            "sourceRecordId": "LB1994",
            "sourceUrl": "https://portal.historicenvironment.scot/designation/LB1994",
            "accessedAt": "2026-07-29",
            "licence": "Official designation record; HES spatial data is available under the Open Government Licence v3.0.",
            "reliability": "official_statutory"
          }
        ],
        "licence": "See source records.",
        "tags": [
          "listed building",
          "category C",
          "Western Alva and Balquharn"
        ],
        "createdAt": "2026-07-29",
        "updatedAt": "2026-07-29",
        "reviewed": true,
        "coverageLevel": "detailed",
        "studyAreaSection": "Western Alva and Balquharn",
        "officialRecordUrl": "https://portal.historicenvironment.scot/designation/LB1994",
        "liveRefreshRecommended": true,
        "geometrySource": {
          "type": "Official designation point / HES coordinate",
          "confidence": "high",
          "refreshLayer": "HES Listed Buildings"
        },
        "heatmapScoring": {
          "ageFactor": 0.8,
          "significanceFactor": 0.5,
          "confidenceFactor": 1,
          "survivalFactor": 0.6,
          "provisionalWeight": 0.24,
          "warning": "Interpretive app weight only; not an official heritage assessment."
        }
      }
    },
    {
      "type": "Feature",
      "id": "hes-lb51095",
      "geometry": {
        "type": "Point",
        "coordinates": [
          -3.773048,
          56.157168
        ]
      },
      "properties": {
        "id": "hes-lb51095",
        "projectId": "alva-scotland",
        "name": "Alva Woodland Park Icehouse",
        "alternativeNames": [],
        "countryCode": "GB",
        "nation": "Scotland",
        "region": "Clackmannanshire",
        "locality": "Alva",
        "featureType": "listed_building",
        "designationType": "Listed Building",
        "designationCategory": "B",
        "statutoryStatus": "Designated — refresh live before publication",
        "designationReference": "LB51095",
        "locationType": "designation_point",
        "locationConfidence": "high",
        "documentedDateText": "Circa 1830",
        "earliestPossibleYear": 1825,
        "latestPossibleYear": 1835,
        "dateBasis": "estimated_from_authoritative_source",
        "dateConfidence": "high",
        "datePrecision": "documented_or_estimated_range",
        "shortDescription": "Rare seven-sided estate icehouse associated with Alva House.",
        "fullDescription": "Rare seven-sided estate icehouse associated with Alva House.",
        "architectOrDesigner": null,
        "extantStatus": "extant",
        "sourceRecords": [
          {
            "sourceName": "Historic Environment Scotland designation LB51095",
            "sourceOrganisation": "Historic Environment Scotland",
            "sourceRecordId": "LB51095",
            "sourceUrl": "https://portal.historicenvironment.scot/designation/LB51095",
            "accessedAt": "2026-07-29",
            "licence": "Official designation record; HES spatial data is available under the Open Government Licence v3.0.",
            "reliability": "official_statutory"
          }
        ],
        "licence": "See source records.",
        "tags": [
          "listed building",
          "category B",
          "Former Alva House policies and eastern glen"
        ],
        "createdAt": "2026-07-29",
        "updatedAt": "2026-07-29",
        "reviewed": true,
        "coverageLevel": "detailed",
        "studyAreaSection": "Former Alva House policies and eastern glen",
        "officialRecordUrl": "https://portal.historicenvironment.scot/designation/LB51095",
        "liveRefreshRecommended": true,
        "geometrySource": {
          "type": "Official designation point / HES coordinate",
          "confidence": "high",
          "refreshLayer": "HES Listed Buildings"
        },
        "heatmapScoring": {
          "ageFactor": 0.7,
          "significanceFactor": 0.75,
          "confidenceFactor": 1,
          "survivalFactor": 0.6,
          "provisionalWeight": 0.315,
          "warning": "Interpretive app weight only; not an official heritage assessment."
        }
      }
    },
    {
      "type": "Feature",
      "id": "hes-lb21031",
      "geometry": {
        "type": "Point",
        "coordinates": [
          -3.792312,
          56.155578
        ]
      },
      "properties": {
        "id": "hes-lb21031",
        "projectId": "alva-scotland",
        "name": "Alva-Johnstone Mausoleum, Alva Churchyard",
        "alternativeNames": [],
        "countryCode": "GB",
        "nation": "Scotland",
        "region": "Clackmannanshire",
        "locality": "Alva",
        "featureType": "listed_building",
        "designationType": "Listed Building",
        "designationCategory": "A",
        "statutoryStatus": "Designated — refresh live before publication",
        "designationReference": "LB21031",
        "locationType": "designation_point",
        "locationConfidence": "high",
        "documentedDateText": "1790",
        "earliestPossibleYear": 1790,
        "latestPossibleYear": 1790,
        "dateBasis": "documented_construction",
        "dateConfidence": "high",
        "datePrecision": "exact_year",
        "shortDescription": "Category A Graeco-Roman family mausoleum.",
        "fullDescription": "Category A Graeco-Roman family mausoleum.",
        "architectOrDesigner": "Robert and James Adam",
        "extantStatus": "extant",
        "sourceRecords": [
          {
            "sourceName": "Historic Environment Scotland designation LB21031",
            "sourceOrganisation": "Historic Environment Scotland",
            "sourceRecordId": "LB21031",
            "sourceUrl": "https://portal.historicenvironment.scot/designation/LB21031",
            "accessedAt": "2026-07-29",
            "licence": "Official designation record; HES spatial data is available under the Open Government Licence v3.0.",
            "reliability": "official_statutory"
          }
        ],
        "licence": "See source records.",
        "tags": [
          "listed building",
          "category A",
          "Alva town and historic core"
        ],
        "createdAt": "2026-07-29",
        "updatedAt": "2026-07-29",
        "reviewed": true,
        "coverageLevel": "detailed",
        "studyAreaSection": "Alva town and historic core",
        "officialRecordUrl": "https://portal.historicenvironment.scot/designation/LB21031",
        "liveRefreshRecommended": true,
        "geometrySource": {
          "type": "Official designation point / HES coordinate",
          "confidence": "high",
          "refreshLayer": "HES Listed Buildings"
        },
        "heatmapScoring": {
          "ageFactor": 0.8,
          "significanceFactor": 1,
          "confidenceFactor": 1,
          "survivalFactor": 0.6,
          "provisionalWeight": 0.48,
          "warning": "Interpretive app weight only; not an official heritage assessment."
        }
      }
    },
    {
      "type": "Feature",
      "id": "hes-lb21032",
      "geometry": {
        "type": "Point",
        "coordinates": [
          -3.795325,
          56.156307
        ]
      },
      "properties": {
        "id": "hes-lb21032",
        "projectId": "alva-scotland",
        "name": "Strude Mill, Six-Storey Warehouse",
        "alternativeNames": [],
        "countryCode": "GB",
        "nation": "Scotland",
        "region": "Clackmannanshire",
        "locality": "Alva",
        "featureType": "listed_building",
        "designationType": "Listed Building",
        "designationCategory": "B",
        "statutoryStatus": "Designated — refresh live before publication",
        "designationReference": "LB21032",
        "locationType": "designation_point",
        "locationConfidence": "high",
        "documentedDateText": "1820, with later alterations",
        "earliestPossibleYear": 1820,
        "latestPossibleYear": 1820,
        "dateBasis": "documented_construction",
        "dateConfidence": "high",
        "datePrecision": "exact_year",
        "shortDescription": "Prominent multi-storey woollen-mill warehouse.",
        "fullDescription": "Prominent multi-storey woollen-mill warehouse.",
        "architectOrDesigner": null,
        "extantStatus": "extant",
        "sourceRecords": [
          {
            "sourceName": "Historic Environment Scotland designation LB21032",
            "sourceOrganisation": "Historic Environment Scotland",
            "sourceRecordId": "LB21032",
            "sourceUrl": "https://portal.historicenvironment.scot/designation/LB21032",
            "accessedAt": "2026-07-29",
            "licence": "Official designation record; HES spatial data is available under the Open Government Licence v3.0.",
            "reliability": "official_statutory"
          }
        ],
        "licence": "See source records.",
        "tags": [
          "listed building",
          "category B",
          "Alva town and historic core"
        ],
        "createdAt": "2026-07-29",
        "updatedAt": "2026-07-29",
        "reviewed": true,
        "coverageLevel": "detailed",
        "studyAreaSection": "Alva town and historic core",
        "officialRecordUrl": "https://portal.historicenvironment.scot/designation/LB21032",
        "liveRefreshRecommended": true,
        "geometrySource": {
          "type": "Official designation point / HES coordinate",
          "confidence": "high",
          "refreshLayer": "HES Listed Buildings"
        },
        "heatmapScoring": {
          "ageFactor": 0.7,
          "significanceFactor": 0.75,
          "confidenceFactor": 1,
          "survivalFactor": 0.6,
          "provisionalWeight": 0.315,
          "warning": "Interpretive app weight only; not an official heritage assessment."
        }
      }
    },
    {
      "type": "Feature",
      "id": "hes-lb1995",
      "geometry": {
        "type": "Point",
        "coordinates": [
          -3.772748,
          56.157639
        ]
      },
      "properties": {
        "id": "hes-lb1995",
        "projectId": "alva-scotland",
        "name": "Alva House Stable Block and Cottage",
        "alternativeNames": [],
        "countryCode": "GB",
        "nation": "Scotland",
        "region": "Clackmannanshire",
        "locality": "Alva",
        "featureType": "listed_building",
        "designationType": "Listed Building",
        "designationCategory": "B",
        "statutoryStatus": "Designated — refresh live before publication",
        "designationReference": "LB1995",
        "locationType": "designation_point",
        "locationConfidence": "high",
        "documentedDateText": "Early 19th century, probably around 1820",
        "earliestPossibleYear": 1800,
        "latestPossibleYear": 1825,
        "dateBasis": "estimated_from_authoritative_source",
        "dateConfidence": "medium",
        "datePrecision": "documented_or_estimated_range",
        "shortDescription": "Principal surviving service building of Alva House estate.",
        "fullDescription": "Principal surviving service building of Alva House estate.",
        "architectOrDesigner": null,
        "extantStatus": "extant",
        "sourceRecords": [
          {
            "sourceName": "Historic Environment Scotland designation LB1995",
            "sourceOrganisation": "Historic Environment Scotland",
            "sourceRecordId": "LB1995",
            "sourceUrl": "https://portal.historicenvironment.scot/designation/LB1995",
            "accessedAt": "2026-07-29",
            "licence": "Official designation record; HES spatial data is available under the Open Government Licence v3.0.",
            "reliability": "official_statutory"
          }
        ],
        "licence": "See source records.",
        "tags": [
          "listed building",
          "category B",
          "Former Alva House policies and eastern glen"
        ],
        "createdAt": "2026-07-29",
        "updatedAt": "2026-07-29",
        "reviewed": true,
        "coverageLevel": "detailed",
        "studyAreaSection": "Former Alva House policies and eastern glen",
        "officialRecordUrl": "https://portal.historicenvironment.scot/designation/LB1995",
        "liveRefreshRecommended": true,
        "geometrySource": {
          "type": "Official designation point / HES coordinate",
          "confidence": "high",
          "refreshLayer": "HES Listed Buildings"
        },
        "heatmapScoring": {
          "ageFactor": 0.7,
          "significanceFactor": 0.75,
          "confidenceFactor": 0.75,
          "survivalFactor": 0.6,
          "provisionalWeight": 0.2362,
          "warning": "Interpretive app weight only; not an official heritage assessment."
        }
      }
    },
    {
      "type": "Feature",
      "id": "hes-lb51577",
      "geometry": {
        "type": "Point",
        "coordinates": [
          -3.806385,
          56.15318
        ]
      },
      "properties": {
        "id": "hes-lb51577",
        "projectId": "alva-scotland",
        "name": "Former Dalmore School",
        "alternativeNames": [],
        "countryCode": "GB",
        "nation": "Scotland",
        "region": "Clackmannanshire",
        "locality": "Alva",
        "featureType": "listed_building",
        "designationType": "Listed Building",
        "designationCategory": "C",
        "statutoryStatus": "Designated — refresh live before publication",
        "designationReference": "LB51577",
        "locationType": "designation_point",
        "locationConfidence": "high",
        "documentedDateText": "1885–1886",
        "earliestPossibleYear": 1885,
        "latestPossibleYear": 1886,
        "dateBasis": "documented_date_range",
        "dateConfidence": "high",
        "datePrecision": "documented_or_estimated_range",
        "shortDescription": "Late-Victorian school serving the Dalmore industrial community.",
        "fullDescription": "Late-Victorian school serving the Dalmore industrial community.",
        "architectOrDesigner": "John Melvin & Son",
        "extantStatus": "extant",
        "sourceRecords": [
          {
            "sourceName": "Historic Environment Scotland designation LB51577",
            "sourceOrganisation": "Historic Environment Scotland",
            "sourceRecordId": "LB51577",
            "sourceUrl": "https://portal.historicenvironment.scot/designation/LB51577",
            "accessedAt": "2026-07-29",
            "licence": "Official designation record; HES spatial data is available under the Open Government Licence v3.0.",
            "reliability": "official_statutory"
          }
        ],
        "licence": "See source records.",
        "tags": [
          "listed building",
          "category C",
          "Alva town and historic core"
        ],
        "createdAt": "2026-07-29",
        "updatedAt": "2026-07-29",
        "reviewed": true,
        "coverageLevel": "detailed",
        "studyAreaSection": "Alva town and historic core",
        "officialRecordUrl": "https://portal.historicenvironment.scot/designation/LB51577",
        "liveRefreshRecommended": true,
        "geometrySource": {
          "type": "Official designation point / HES coordinate",
          "confidence": "high",
          "refreshLayer": "HES Listed Buildings"
        },
        "heatmapScoring": {
          "ageFactor": 0.58,
          "significanceFactor": 0.5,
          "confidenceFactor": 1,
          "survivalFactor": 0.6,
          "provisionalWeight": 0.174,
          "warning": "Interpretive app weight only; not an official heritage assessment."
        }
      }
    },
    {
      "type": "Feature",
      "id": "hes-sm13758",
      "geometry": {
        "type": "Point",
        "coordinates": [
          -3.8483613,
          56.1592809
        ]
      },
      "properties": {
        "id": "hes-sm13758",
        "projectId": "alva-scotland",
        "name": "Dun, 680 metres south-west of the summit of Myreton Hill",
        "alternativeNames": [
          "Myreton Hill dun"
        ],
        "countryCode": "GB",
        "nation": "Scotland",
        "region": "Clackmannanshire",
        "locality": "Alva",
        "featureType": "fortified_settlement",
        "designationType": "Scheduled Monument",
        "designationCategory": null,
        "statutoryStatus": "Designated",
        "designationReference": "SM13758",
        "britishNationalGrid": {
          "easting": 285299,
          "northing": 697828,
          "epsg": 27700
        },
        "locationType": "scheduled_monument_reference_point",
        "locationConfidence": "high",
        "documentedDateText": "Iron Age to Early Medieval, approximately 800 BC–AD 1000",
        "earliestPossibleYear": -800,
        "latestPossibleYear": 1000,
        "dateBasis": "documented_date_range",
        "dateConfidence": "high",
        "datePrecision": "archaeological_period_range",
        "shortDescription": "Defended settlement or dun in a prominent Ochil Hills location above Alva.",
        "fullDescription": "Potentially important later-prehistoric and early-medieval defended settlement.",
        "architectOrDesigner": null,
        "extantStatus": "archaeological",
        "sourceRecords": [
          {
            "sourceName": "Historic Environment Scotland designation SM13758",
            "sourceOrganisation": "Historic Environment Scotland",
            "sourceRecordId": "SM13758",
            "sourceUrl": "https://portal.historicenvironment.scot/designation/SM13758",
            "accessedAt": "2026-07-29",
            "licence": "Official designation record; HES spatial data is available under the Open Government Licence v3.0.",
            "reliability": "official_statutory"
          }
        ],
        "licence": "See source records.",
        "tags": [
          "scheduled monument",
          "Iron Age",
          "Early Medieval",
          "dun"
        ],
        "createdAt": "2026-07-29",
        "updatedAt": "2026-07-29",
        "reviewed": true,
        "coverageLevel": "detailed",
        "studyAreaSection": "Alva Glen, Silver Glen and Ochil uplands",
        "officialRecordUrl": "https://portal.historicenvironment.scot/designation/SM13758",
        "liveRefreshRecommended": true,
        "geometrySource": {
          "type": "Official HES scheduled-monument coordinate",
          "confidence": "high",
          "refreshLayer": "HES Scheduled Monuments"
        },
        "heatmapScoring": {
          "ageFactor": 1,
          "significanceFactor": 1,
          "confidenceFactor": 1,
          "survivalFactor": 0.55,
          "provisionalWeight": 0.55,
          "warning": "Interpretive app weight only; not an official heritage assessment."
        }
      }
    },
    {
      "type": "Feature",
      "id": "context-st-serfs",
      "geometry": {
        "type": "Point",
        "coordinates": [
          -3.7916131,
          56.1547431
        ]
      },
      "properties": {
        "id": "context-st-serfs",
        "projectId": "alva-scotland",
        "name": "Medieval St Serf’s Church site and Alva Old Kirkyard",
        "alternativeNames": [],
        "countryCode": "GB",
        "nation": "Scotland",
        "region": "Clackmannanshire",
        "locality": "Alva",
        "featureType": "church_site",
        "designationType": "Contextual Heritage Record",
        "designationCategory": null,
        "statutoryStatus": "Context record; individual components may have separate designations",
        "locationType": "representative_or_pending_geometry",
        "locationConfidence": "medium",
        "documentedDateText": "Church granted to Cambuskenneth Abbey approximately 1170–1173; later church closed in 1980 and was destroyed after a fire in 1984",
        "earliestPossibleYear": 1170,
        "latestPossibleYear": 1984,
        "dateBasis": "documented_date_range",
        "dateConfidence": "high",
        "datePrecision": "documented_or_estimated_range",
        "shortDescription": "Long-lived ecclesiastical site with medieval origins and surviving kirkyard.",
        "fullDescription": "Long-lived ecclesiastical site with medieval origins and surviving kirkyard.",
        "architectOrDesigner": null,
        "extantStatus": "archaeological_and_burial_ground",
        "sourceRecords": [
          {
            "sourceName": "Alva St Serf’s church records",
            "sourceOrganisation": "Historic Environment Scotland — Trove / Canmore",
            "sourceRecordId": null,
            "sourceUrl": "https://www.trove.scot/place/127195",
            "accessedAt": "2026-07-29",
            "licence": "Check Trove reuse terms.",
            "reliability": "official_non_statutory"
          },
          {
            "sourceName": "Corpus of Scottish Medieval Parish Churches",
            "sourceOrganisation": "University of St Andrews",
            "sourceRecordId": null,
            "sourceUrl": "https://arts.st-andrews.ac.uk/corpusofscottishchurches/site.php?id=158864",
            "accessedAt": "2026-07-29",
            "licence": "Check source reuse terms.",
            "reliability": "academic"
          }
        ],
        "licence": "See source records.",
        "tags": [
          "church_site",
          "Alva history"
        ],
        "createdAt": "2026-07-29",
        "updatedAt": "2026-07-29",
        "reviewed": true,
        "coverageLevel": "contextual_evidence",
        "studyAreaSection": "Alva town and wider historical setting",
        "liveRefreshRecommended": false,
        "heatmapScoring": {
          "ageFactor": 0.98,
          "significanceFactor": 0.35,
          "confidenceFactor": 1,
          "survivalFactor": 0.6,
          "provisionalWeight": 0.2058,
          "warning": "Interpretive app weight only; not an official heritage assessment."
        }
      }
    },
    {
      "type": "Feature",
      "id": "context-silver-glen",
      "geometry": {
        "type": "Point",
        "coordinates": [
          -3.7889049,
          56.1591766
        ]
      },
      "properties": {
        "id": "context-silver-glen",
        "projectId": "alva-scotland",
        "name": "Silver Glen mine and cobalt workings",
        "alternativeNames": [],
        "countryCode": "GB",
        "nation": "Scotland",
        "region": "Clackmannanshire",
        "locality": "Alva",
        "featureType": "mine",
        "designationType": "Contextual Heritage Record",
        "designationCategory": null,
        "statutoryStatus": "Context record; individual components may have separate designations",
        "locationType": "representative_or_pending_geometry",
        "locationConfidence": "medium",
        "documentedDateText": "Silver ore discovered and mining begun around 1714–1715; intermittently worked until 1768, including cobalt extraction from about 1758–1759",
        "earliestPossibleYear": 1714,
        "latestPossibleYear": 1768,
        "dateBasis": "documented_date_range",
        "dateConfidence": "high",
        "datePrecision": "documented_or_estimated_range",
        "shortDescription": "Historic silver and cobalt mining landscape in Silver Glen.",
        "fullDescription": "Historic silver and cobalt mining landscape in Silver Glen.",
        "architectOrDesigner": null,
        "extantStatus": "archaeological",
        "sourceRecords": [
          {
            "sourceName": "Alva Silver Glen mine",
            "sourceOrganisation": "Historic Environment Scotland — Trove / Canmore",
            "sourceRecordId": null,
            "sourceUrl": "https://www.trove.scot/place/47182",
            "accessedAt": "2026-07-29",
            "licence": "Check Trove reuse terms.",
            "reliability": "official_non_statutory"
          },
          {
            "sourceName": "Scotland’s Silver Glen",
            "sourceOrganisation": "National Museums Scotland",
            "sourceRecordId": null,
            "sourceUrl": "https://blog.nms.ac.uk/2017/03/14/scotlands-silver-glen/",
            "accessedAt": "2026-07-29",
            "licence": "Check source terms.",
            "reliability": "official_non_statutory"
          }
        ],
        "licence": "See source records.",
        "tags": [
          "mine",
          "Alva history"
        ],
        "createdAt": "2026-07-29",
        "updatedAt": "2026-07-29",
        "reviewed": true,
        "coverageLevel": "contextual_evidence",
        "studyAreaSection": "Alva town and wider historical setting",
        "liveRefreshRecommended": false,
        "heatmapScoring": {
          "ageFactor": 0.8,
          "significanceFactor": 0.35,
          "confidenceFactor": 1,
          "survivalFactor": 0.55,
          "provisionalWeight": 0.154,
          "warning": "Interpretive app weight only; not an official heritage assessment."
        }
      }
    }
  ]
}