{
  "type": "FeatureCollection",
  "name": "Alva Technical Query Envelope",
  "features": [
    {
      "type": "Feature",
      "id": "alva-query-envelope",
      "geometry": {
        "type": "Polygon",
        "coordinates": [
          [
            [
              -3.865,
              56.14
            ],
            [
              -3.75,
              56.14
            ],
            [
              -3.75,
              56.18
            ],
            [
              -3.865,
              56.18
            ],
            [
              -3.865,
              56.14
            ]
          ]
        ]
      },
      "properties": {
        "purpose": "technical_retrieval_envelope",
        "warning": "Not an official boundary."
      }
    }
  ]
}